{
  "type": "FeatureCollection",
  "name": "Path of the Gods",
  "features": [
    {
      "type": "Feature",
      "properties": {
        "slug": "path-of-the-gods",
        "title": "Path of the Gods",
        "osmRelationId": 4757514,
        "source": "OpenStreetMap relation 4757514",
        "license": "ODbL-1.0",
        "fallbackUrl": "https://maps.app.goo.gl/XpFY4Zz9LtRKzQno8",
        "distanceKm": 5.19
      },
      "geometry": {
        "type": "LineString",
        "coordinates": [
          [
            14.539765,
            40.6292449
          ],
          [
            14.5397344,
            40.6291718
          ],
          [
            14.5397171,
            40.629126
          ],
          [
            14.5396148,
            40.6288985
          ],
          [
            14.5395241,
            40.6287604
          ],
          [
            14.5394466,
            40.6286843
          ],
          [
            14.5393211,
            40.6285461
          ],
          [
            14.5392666,
            40.6284656
          ],
          [
            14.5391661,
            40.6283909
          ],
          [
            14.539114,
            40.6283593
          ],
          [
            14.5391006,
            40.6283376
          ],
          [
            14.5390756,
            40.6282362
          ],
          [
            14.5390593,
            40.6281955
          ],
          [
            14.5390067,
            40.628163
          ],
          [
            14.5387571,
            40.628114
          ],
          [
            14.5387134,
            40.6281004
          ],
          [
            14.5385374,
            40.6279937
          ],
          [
            14.5384813,
            40.6279437
          ],
          [
            14.5384355,
            40.6278988
          ],
          [
            14.5383776,
            40.6278624
          ],
          [
            14.5382958,
            40.6279254
          ],
          [
            14.538225,
            40.6279479
          ],
          [
            14.5381799,
            40.6279511
          ],
          [
            14.5381697,
            40.6279557
          ],
          [
            14.5381061,
            40.6279844
          ],
          [
            14.5380859,
            40.6279676
          ],
          [
            14.5380557,
            40.6279425
          ],
          [
            14.5378814,
            40.627899
          ],
          [
            14.537755,
            40.627871
          ],
          [
            14.5378219,
            40.6277196
          ],
          [
            14.5378637,
            40.6275617
          ],
          [
            14.5378667,
            40.6273469
          ],
          [
            14.5378497,
            40.6272465
          ],
          [
            14.5378357,
            40.6272014
          ],
          [
            14.537818,
            40.6271444
          ],
          [
            14.5377473,
            40.6269985
          ],
          [
            14.5376083,
            40.6267612
          ],
          [
            14.5375075,
            40.6266693
          ],
          [
            14.5373656,
            40.6265369
          ],
          [
            14.5371939,
            40.6263442
          ],
          [
            14.537044,
            40.6261404
          ],
          [
            14.5369145,
            40.6259711
          ],
          [
            14.5366688,
            40.6257284
          ],
          [
            14.5365471,
            40.6256393
          ],
          [
            14.5364533,
            40.6255563
          ],
          [
            14.5363384,
            40.625489
          ],
          [
            14.5362211,
            40.6254413
          ],
          [
            14.5360878,
            40.625379
          ],
          [
            14.5360059,
            40.625349
          ],
          [
            14.5359158,
            40.6253183
          ],
          [
            14.5358072,
            40.6252782
          ],
          [
            14.5357148,
            40.6252286
          ],
          [
            14.5356524,
            40.6252096
          ],
          [
            14.5354533,
            40.6251015
          ],
          [
            14.5353923,
            40.625056
          ],
          [
            14.5353256,
            40.6250314
          ],
          [
            14.5352945,
            40.625025
          ],
          [
            14.5352072,
            40.625034
          ],
          [
            14.5351312,
            40.6250478
          ],
          [
            14.5350763,
            40.6250567
          ],
          [
            14.5349355,
            40.6250575
          ],
          [
            14.5348959,
            40.6250615
          ],
          [
            14.5348385,
            40.6250614
          ],
          [
            14.5347854,
            40.6250474
          ],
          [
            14.5347161,
            40.6250297
          ],
          [
            14.5346271,
            40.6250264
          ],
          [
            14.5345273,
            40.6250521
          ],
          [
            14.534453,
            40.6250854
          ],
          [
            14.5343838,
            40.6251278
          ],
          [
            14.5343519,
            40.6251737
          ],
          [
            14.5343139,
            40.6252383
          ],
          [
            14.5343135,
            40.6252882
          ],
          [
            14.5343128,
            40.6253791
          ],
          [
            14.5342832,
            40.6254328
          ],
          [
            14.5342522,
            40.6254765
          ],
          [
            14.5341378,
            40.6255197
          ],
          [
            14.5340755,
            40.6255362
          ],
          [
            14.5339651,
            40.6255341
          ],
          [
            14.5338086,
            40.6255119
          ],
          [
            14.5336883,
            40.6254916
          ],
          [
            14.5336301,
            40.6254858
          ],
          [
            14.5335379,
            40.6254766
          ],
          [
            14.5335135,
            40.6254638
          ],
          [
            14.5333605,
            40.6253465
          ],
          [
            14.533217,
            40.6252661
          ],
          [
            14.5330736,
            40.6252429
          ],
          [
            14.5330294,
            40.6252299
          ],
          [
            14.5329774,
            40.625184
          ],
          [
            14.5329518,
            40.6251485
          ],
          [
            14.5329177,
            40.6250562
          ],
          [
            14.5329041,
            40.6250336
          ],
          [
            14.532887,
            40.6250131
          ],
          [
            14.5328357,
            40.6249523
          ],
          [
            14.5327897,
            40.6249144
          ],
          [
            14.5327099,
            40.6248644
          ],
          [
            14.5326586,
            40.6248447
          ],
          [
            14.5325749,
            40.6248305
          ],
          [
            14.5324561,
            40.624831
          ],
          [
            14.5322747,
            40.6248538
          ],
          [
            14.5320531,
            40.6248786
          ],
          [
            14.5318995,
            40.6248959
          ],
          [
            14.5316429,
            40.6249296
          ],
          [
            14.5313742,
            40.6249748
          ],
          [
            14.5312695,
            40.624991
          ],
          [
            14.5312249,
            40.625
          ],
          [
            14.5311793,
            40.6250219
          ],
          [
            14.5311413,
            40.6250277
          ],
          [
            14.5311099,
            40.6250141
          ],
          [
            14.5310833,
            40.6249759
          ],
          [
            14.531061,
            40.6249126
          ],
          [
            14.5310138,
            40.6247809
          ],
          [
            14.5309913,
            40.6247585
          ],
          [
            14.5309407,
            40.6247311
          ],
          [
            14.5308875,
            40.62472
          ],
          [
            14.5308407,
            40.6247238
          ],
          [
            14.5307914,
            40.6247383
          ],
          [
            14.5307394,
            40.6247553
          ],
          [
            14.5306742,
            40.6247582
          ],
          [
            14.5306182,
            40.6247544
          ],
          [
            14.5305602,
            40.6247624
          ],
          [
            14.5305074,
            40.6247779
          ],
          [
            14.5304623,
            40.6248376
          ],
          [
            14.5304149,
            40.6249553
          ],
          [
            14.5303902,
            40.6249916
          ],
          [
            14.5303582,
            40.6250191
          ],
          [
            14.5302894,
            40.6250543
          ],
          [
            14.5302331,
            40.625099
          ],
          [
            14.5300261,
            40.6252778
          ],
          [
            14.529995,
            40.6253031
          ],
          [
            14.5299259,
            40.6253168
          ],
          [
            14.5298629,
            40.6253176
          ],
          [
            14.5298046,
            40.6253041
          ],
          [
            14.5297593,
            40.625281
          ],
          [
            14.5297042,
            40.62525
          ],
          [
            14.5296598,
            40.625222
          ],
          [
            14.5296337,
            40.6252027
          ],
          [
            14.5295874,
            40.6251873
          ],
          [
            14.5295178,
            40.6251835
          ],
          [
            14.5294887,
            40.6251692
          ],
          [
            14.529477,
            40.6251525
          ],
          [
            14.5294683,
            40.6251129
          ],
          [
            14.5294889,
            40.6250879
          ],
          [
            14.5295068,
            40.6250687
          ],
          [
            14.5295243,
            40.6250485
          ],
          [
            14.5295394,
            40.6250149
          ],
          [
            14.5295512,
            40.6249723
          ],
          [
            14.5295541,
            40.6249245
          ],
          [
            14.5295526,
            40.6248694
          ],
          [
            14.529566,
            40.6247959
          ],
          [
            14.5295688,
            40.6247731
          ],
          [
            14.5295745,
            40.6247416
          ],
          [
            14.529575,
            40.6247136
          ],
          [
            14.5295695,
            40.6246897
          ],
          [
            14.5295378,
            40.6246508
          ],
          [
            14.529481,
            40.6245991
          ],
          [
            14.5294657,
            40.6245699
          ],
          [
            14.529466,
            40.6245267
          ],
          [
            14.52947,
            40.6244712
          ],
          [
            14.5294766,
            40.6244249
          ],
          [
            14.5294604,
            40.6243581
          ],
          [
            14.5294477,
            40.6242886
          ],
          [
            14.5294387,
            40.6242473
          ],
          [
            14.5294204,
            40.6242185
          ],
          [
            14.5293881,
            40.6242004
          ],
          [
            14.5292979,
            40.6241599
          ],
          [
            14.5292296,
            40.6241321
          ],
          [
            14.5291664,
            40.6241317
          ],
          [
            14.529109,
            40.6241329
          ],
          [
            14.5290451,
            40.6241113
          ],
          [
            14.528978,
            40.6240737
          ],
          [
            14.528957,
            40.624038
          ],
          [
            14.5289371,
            40.623976
          ],
          [
            14.5289275,
            40.6238963
          ],
          [
            14.5289345,
            40.6238453
          ],
          [
            14.5289383,
            40.6238131
          ],
          [
            14.5289562,
            40.6237788
          ],
          [
            14.5290217,
            40.6236958
          ],
          [
            14.5290494,
            40.6236288
          ],
          [
            14.5290586,
            40.6235762
          ],
          [
            14.5290485,
            40.6235204
          ],
          [
            14.5290296,
            40.623432
          ],
          [
            14.5290107,
            40.6233529
          ],
          [
            14.5289761,
            40.623219
          ],
          [
            14.5289348,
            40.6231432
          ],
          [
            14.5288899,
            40.6230821
          ],
          [
            14.5288845,
            40.6230504
          ],
          [
            14.5288705,
            40.6229794
          ],
          [
            14.5288477,
            40.622885
          ],
          [
            14.5288117,
            40.6227634
          ],
          [
            14.5287901,
            40.6225498
          ],
          [
            14.528792,
            40.6224424
          ],
          [
            14.5288081,
            40.6223562
          ],
          [
            14.5288498,
            40.6222193
          ],
          [
            14.5288615,
            40.622177
          ],
          [
            14.5288355,
            40.6221135
          ],
          [
            14.5287767,
            40.6220547
          ],
          [
            14.5287233,
            40.6220121
          ],
          [
            14.5286495,
            40.6219781
          ],
          [
            14.5285877,
            40.6219476
          ],
          [
            14.5285567,
            40.6219245
          ],
          [
            14.5285338,
            40.6218987
          ],
          [
            14.5285221,
            40.6218638
          ],
          [
            14.5285068,
            40.6218217
          ],
          [
            14.5284663,
            40.621743
          ],
          [
            14.5284286,
            40.6216122
          ],
          [
            14.5283585,
            40.6213062
          ],
          [
            14.5283452,
            40.6212498
          ],
          [
            14.5283298,
            40.6212183
          ],
          [
            14.5283039,
            40.6211803
          ],
          [
            14.528287,
            40.621121
          ],
          [
            14.528316,
            40.6210656
          ],
          [
            14.5283045,
            40.6209712
          ],
          [
            14.5282551,
            40.6208892
          ],
          [
            14.5282059,
            40.6208373
          ],
          [
            14.5281517,
            40.620789
          ],
          [
            14.5280032,
            40.6206959
          ],
          [
            14.5278887,
            40.6208402
          ],
          [
            14.5277572,
            40.6209719
          ],
          [
            14.5275991,
            40.6211802
          ],
          [
            14.5274835,
            40.6213617
          ],
          [
            14.5274197,
            40.6213902
          ],
          [
            14.5273611,
            40.621389
          ],
          [
            14.5273255,
            40.6213716
          ],
          [
            14.527285,
            40.6213348
          ],
          [
            14.5271569,
            40.6212042
          ],
          [
            14.527054,
            40.6211537
          ],
          [
            14.5269358,
            40.6210879
          ],
          [
            14.5268405,
            40.6210349
          ],
          [
            14.5267271,
            40.6210078
          ],
          [
            14.526621,
            40.6209919
          ],
          [
            14.5265071,
            40.6209724
          ],
          [
            14.5264353,
            40.6209362
          ],
          [
            14.5263737,
            40.6209072
          ],
          [
            14.5263191,
            40.6208731
          ],
          [
            14.5262075,
            40.6208319
          ],
          [
            14.5261083,
            40.6208106
          ],
          [
            14.5257563,
            40.6207842
          ],
          [
            14.5255289,
            40.620786
          ],
          [
            14.5254339,
            40.6208141
          ],
          [
            14.5253444,
            40.6208457
          ],
          [
            14.5252769,
            40.6208579
          ],
          [
            14.5250723,
            40.6208634
          ],
          [
            14.5250077,
            40.6208743
          ],
          [
            14.5249084,
            40.6209017
          ],
          [
            14.5248277,
            40.6209179
          ],
          [
            14.5247646,
            40.6209517
          ],
          [
            14.5246795,
            40.6209463
          ],
          [
            14.5246058,
            40.6209101
          ],
          [
            14.5241426,
            40.6208474
          ],
          [
            14.5239398,
            40.6208593
          ],
          [
            14.5238612,
            40.6208713
          ],
          [
            14.5238051,
            40.6208945
          ],
          [
            14.5237515,
            40.6209254
          ],
          [
            14.523682,
            40.6210108
          ],
          [
            14.5236421,
            40.6210881
          ],
          [
            14.5236141,
            40.6212529
          ],
          [
            14.5235898,
            40.6212993
          ],
          [
            14.5235474,
            40.6213472
          ],
          [
            14.523378,
            40.6214815
          ],
          [
            14.5232855,
            40.6215419
          ],
          [
            14.5232068,
            40.6215908
          ],
          [
            14.5231514,
            40.6216439
          ],
          [
            14.5230907,
            40.6216835
          ],
          [
            14.5230213,
            40.6216913
          ],
          [
            14.5229539,
            40.6216741
          ],
          [
            14.5228103,
            40.6216083
          ],
          [
            14.522717,
            40.6215643
          ],
          [
            14.5226086,
            40.6214843
          ],
          [
            14.5225749,
            40.6214361
          ],
          [
            14.5225384,
            40.6213163
          ],
          [
            14.522497,
            40.6212501
          ],
          [
            14.5224556,
            40.6212183
          ],
          [
            14.5224231,
            40.6212023
          ],
          [
            14.5223744,
            40.6211887
          ],
          [
            14.5223026,
            40.6211869
          ],
          [
            14.5222109,
            40.6212009
          ],
          [
            14.5220977,
            40.6212081
          ],
          [
            14.5219341,
            40.6212172
          ],
          [
            14.5218013,
            40.6212297
          ],
          [
            14.5217056,
            40.6212592
          ],
          [
            14.5216279,
            40.6213035
          ],
          [
            14.5215269,
            40.6213705
          ],
          [
            14.5214574,
            40.6214341
          ],
          [
            14.5214305,
            40.6214825
          ],
          [
            14.5213826,
            40.6215428
          ],
          [
            14.5212916,
            40.6215772
          ],
          [
            14.5211556,
            40.6216145
          ],
          [
            14.520959,
            40.6216404
          ],
          [
            14.5208005,
            40.6216655
          ],
          [
            14.5206596,
            40.6216894
          ],
          [
            14.5205831,
            40.6216967
          ],
          [
            14.5204744,
            40.6217065
          ],
          [
            14.5203358,
            40.6217044
          ],
          [
            14.5201856,
            40.6217061
          ],
          [
            14.5200733,
            40.6217086
          ],
          [
            14.5200336,
            40.6217001
          ],
          [
            14.5199601,
            40.6216788
          ],
          [
            14.5198939,
            40.621659
          ],
          [
            14.5198115,
            40.6216674
          ],
          [
            14.519764,
            40.6216952
          ],
          [
            14.519688,
            40.6217458
          ],
          [
            14.519638,
            40.6218236
          ],
          [
            14.5196091,
            40.6218939
          ],
          [
            14.5194609,
            40.6220145
          ],
          [
            14.5194084,
            40.622054
          ],
          [
            14.519367,
            40.6220843
          ],
          [
            14.5193227,
            40.6221025
          ],
          [
            14.5192839,
            40.6221074
          ],
          [
            14.5192049,
            40.6220945
          ],
          [
            14.5191268,
            40.6220786
          ],
          [
            14.5190246,
            40.6220629
          ],
          [
            14.5188473,
            40.6220533
          ],
          [
            14.5186949,
            40.6220249
          ],
          [
            14.5185958,
            40.6220016
          ],
          [
            14.5184747,
            40.6219637
          ],
          [
            14.518328,
            40.6219391
          ],
          [
            14.5181733,
            40.6219287
          ],
          [
            14.5180766,
            40.6219382
          ],
          [
            14.5179379,
            40.6219873
          ],
          [
            14.5178801,
            40.6220185
          ],
          [
            14.5178379,
            40.6220445
          ],
          [
            14.5177967,
            40.6220756
          ],
          [
            14.5177202,
            40.6221546
          ],
          [
            14.5176696,
            40.6222164
          ],
          [
            14.517642,
            40.6222686
          ],
          [
            14.5176143,
            40.622329
          ],
          [
            14.5175923,
            40.622398
          ],
          [
            14.5175619,
            40.6224639
          ],
          [
            14.5175254,
            40.6225064
          ],
          [
            14.5174731,
            40.6225321
          ],
          [
            14.5173792,
            40.6226113
          ],
          [
            14.5173052,
            40.6226977
          ],
          [
            14.5172862,
            40.6227285
          ],
          [
            14.5172894,
            40.6227574
          ],
          [
            14.5172641,
            40.622832
          ],
          [
            14.5172686,
            40.62291
          ],
          [
            14.5173039,
            40.6229944
          ],
          [
            14.5173233,
            40.6230787
          ],
          [
            14.5173229,
            40.6231209
          ],
          [
            14.5173021,
            40.6231579
          ],
          [
            14.517219,
            40.6232319
          ],
          [
            14.5170919,
            40.6233129
          ],
          [
            14.516972,
            40.6233932
          ],
          [
            14.5169115,
            40.6234454
          ],
          [
            14.5168832,
            40.6234943
          ],
          [
            14.5168841,
            40.6235175
          ],
          [
            14.5169365,
            40.6236199
          ],
          [
            14.5169963,
            40.6236995
          ],
          [
            14.517073,
            40.6240149
          ],
          [
            14.5171175,
            40.6240346
          ],
          [
            14.5171411,
            40.6240705
          ],
          [
            14.5171556,
            40.6241078
          ],
          [
            14.5171713,
            40.6241419
          ],
          [
            14.5171742,
            40.6241729
          ],
          [
            14.5171702,
            40.6241997
          ],
          [
            14.5171844,
            40.624256
          ],
          [
            14.5171791,
            40.6242878
          ],
          [
            14.5171752,
            40.6243178
          ],
          [
            14.5171348,
            40.6243633
          ],
          [
            14.5171231,
            40.6244056
          ],
          [
            14.517136,
            40.6244455
          ],
          [
            14.5171648,
            40.6244854
          ],
          [
            14.5173235,
            40.6245737
          ],
          [
            14.5174107,
            40.6246315
          ],
          [
            14.517429,
            40.6246609
          ],
          [
            14.5174002,
            40.6247167
          ],
          [
            14.5172652,
            40.6248021
          ],
          [
            14.5171509,
            40.6248513
          ],
          [
            14.517024,
            40.6249832
          ],
          [
            14.5169545,
            40.6250074
          ],
          [
            14.5167794,
            40.6250341
          ],
          [
            14.5167144,
            40.6250556
          ],
          [
            14.5166699,
            40.6250893
          ],
          [
            14.5166361,
            40.6251295
          ],
          [
            14.5166188,
            40.6251573
          ],
          [
            14.5165753,
            40.6251979
          ],
          [
            14.5165414,
            40.625209
          ],
          [
            14.5164875,
            40.6252133
          ],
          [
            14.5164019,
            40.6252125
          ],
          [
            14.5162268,
            40.6251938
          ],
          [
            14.5159031,
            40.6250753
          ],
          [
            14.515827,
            40.6250855
          ],
          [
            14.5155993,
            40.6251864
          ],
          [
            14.5152111,
            40.6252341
          ],
          [
            14.5151234,
            40.6252525
          ],
          [
            14.5150577,
            40.6252869
          ],
          [
            14.5148481,
            40.6254425
          ],
          [
            14.5148474,
            40.6255266
          ],
          [
            14.5145908,
            40.6257863
          ],
          [
            14.5145791,
            40.6258262
          ],
          [
            14.5146361,
            40.6260086
          ],
          [
            14.5145845,
            40.6260666
          ],
          [
            14.5145416,
            40.6261902
          ],
          [
            14.5145724,
            40.6263038
          ],
          [
            14.5145502,
            40.6263586
          ],
          [
            14.5145149,
            40.6264278
          ],
          [
            14.5145085,
            40.6264952
          ],
          [
            14.5145445,
            40.6266338
          ],
          [
            14.5145438,
            40.6266939
          ],
          [
            14.5145269,
            40.6270071
          ],
          [
            14.5145259,
            40.6273061
          ],
          [
            14.5145371,
            40.6274164
          ],
          [
            14.5145347,
            40.6275301
          ],
          [
            14.5145015,
            40.6275957
          ],
          [
            14.5144051,
            40.6276213
          ],
          [
            14.5142711,
            40.6275982
          ],
          [
            14.5141408,
            40.6275965
          ],
          [
            14.5139509,
            40.6276302
          ],
          [
            14.5135943,
            40.6277641
          ],
          [
            14.5134834,
            40.6277463
          ],
          [
            14.5133409,
            40.6277676
          ],
          [
            14.5131529,
            40.6277843
          ],
          [
            14.513079,
            40.6278093
          ],
          [
            14.5130218,
            40.6278464
          ],
          [
            14.51298,
            40.6278819
          ],
          [
            14.5128239,
            40.6281401
          ],
          [
            14.5125849,
            40.628374
          ],
          [
            14.5124537,
            40.6284598
          ],
          [
            14.5123577,
            40.6285117
          ],
          [
            14.5122675,
            40.6285482
          ],
          [
            14.5119734,
            40.6286665
          ],
          [
            14.5117794,
            40.6287493
          ],
          [
            14.5114789,
            40.6288719
          ],
          [
            14.5114082,
            40.6288954
          ],
          [
            14.5113415,
            40.628942
          ],
          [
            14.5112896,
            40.6289864
          ],
          [
            14.5112671,
            40.6290254
          ],
          [
            14.5112486,
            40.6291254
          ],
          [
            14.5112349,
            40.6291901
          ],
          [
            14.5112382,
            40.6292617
          ],
          [
            14.5112054,
            40.6293132
          ],
          [
            14.5110737,
            40.6293332
          ],
          [
            14.5109645,
            40.629346
          ],
          [
            14.5109327,
            40.6293646
          ],
          [
            14.5109269,
            40.6294024
          ],
          [
            14.5109632,
            40.6294478
          ],
          [
            14.511064,
            40.6295238
          ],
          [
            14.5110851,
            40.6295421
          ],
          [
            14.5110859,
            40.6295739
          ],
          [
            14.5110863,
            40.6296186
          ],
          [
            14.5110875,
            40.6296534
          ],
          [
            14.5110665,
            40.6297835
          ],
          [
            14.5110432,
            40.6298382
          ],
          [
            14.5110166,
            40.6299082
          ],
          [
            14.5109927,
            40.6299596
          ],
          [
            14.5109739,
            40.6300564
          ],
          [
            14.5109529,
            40.6301726
          ],
          [
            14.5109271,
            40.6302851
          ],
          [
            14.5109547,
            40.6303693
          ],
          [
            14.5109945,
            40.6304083
          ],
          [
            14.5110315,
            40.630441
          ],
          [
            14.5110506,
            40.6304525
          ],
          [
            14.5110489,
            40.6304775
          ],
          [
            14.5110186,
            40.6305094
          ],
          [
            14.5109688,
            40.6305045
          ],
          [
            14.510924,
            40.6304829
          ],
          [
            14.5108583,
            40.6304396
          ],
          [
            14.5107988,
            40.6303971
          ],
          [
            14.5107162,
            40.6303504
          ],
          [
            14.5106106,
            40.6303019
          ],
          [
            14.5105619,
            40.6302917
          ],
          [
            14.5105005,
            40.630297
          ],
          [
            14.5104286,
            40.630318
          ],
          [
            14.5103879,
            40.6303491
          ],
          [
            14.5103771,
            40.6303773
          ],
          [
            14.5103816,
            40.6304045
          ],
          [
            14.5103402,
            40.6304408
          ],
          [
            14.5102644,
            40.6304962
          ],
          [
            14.5102559,
            40.6305316
          ],
          [
            14.5102635,
            40.6305971
          ],
          [
            14.5103085,
            40.6306564
          ],
          [
            14.5103365,
            40.6306937
          ],
          [
            14.5103832,
            40.6307505
          ],
          [
            14.5103813,
            40.630778
          ],
          [
            14.5103464,
            40.6308169
          ],
          [
            14.5103396,
            40.6308611
          ],
          [
            14.510339,
            40.6308985
          ],
          [
            14.5103395,
            40.6309403
          ],
          [
            14.5103413,
            40.6309831
          ],
          [
            14.5103254,
            40.6310147
          ],
          [
            14.5102815,
            40.6310247
          ],
          [
            14.5102402,
            40.6309999
          ],
          [
            14.5101668,
            40.6309654
          ],
          [
            14.5101013,
            40.6309492
          ],
          [
            14.5100744,
            40.6309141
          ],
          [
            14.5100498,
            40.6308819
          ],
          [
            14.5099955,
            40.6308487
          ],
          [
            14.5099503,
            40.6307887
          ],
          [
            14.5099068,
            40.6307715
          ],
          [
            14.509849,
            40.6307772
          ],
          [
            14.5097857,
            40.6307897
          ],
          [
            14.5097587,
            40.6307857
          ],
          [
            14.5097326,
            40.6307709
          ],
          [
            14.5097012,
            40.6307242
          ],
          [
            14.5096809,
            40.6306873
          ],
          [
            14.5096282,
            40.630636
          ],
          [
            14.5095836,
            40.6306021
          ],
          [
            14.5095234,
            40.63057
          ],
          [
            14.5094807,
            40.6305376
          ],
          [
            14.5094281,
            40.6305069
          ],
          [
            14.5093946,
            40.6304599
          ],
          [
            14.5093498,
            40.6303909
          ],
          [
            14.5093404,
            40.6302935
          ],
          [
            14.5093552,
            40.6302507
          ],
          [
            14.5093603,
            40.6301942
          ],
          [
            14.5092733,
            40.6301029
          ],
          [
            14.5091563,
            40.6300259
          ],
          [
            14.5091078,
            40.6299632
          ],
          [
            14.5090685,
            40.6299223
          ],
          [
            14.5090016,
            40.6298625
          ],
          [
            14.5089373,
            40.6298407
          ],
          [
            14.5088901,
            40.629841
          ],
          [
            14.5088275,
            40.6298592
          ],
          [
            14.5087774,
            40.6298973
          ],
          [
            14.5087161,
            40.6299042
          ],
          [
            14.5086213,
            40.6298961
          ],
          [
            14.5084948,
            40.6299034
          ],
          [
            14.5083952,
            40.6299448
          ],
          [
            14.5083262,
            40.6299686
          ],
          [
            14.5082829,
            40.6299695
          ],
          [
            14.5082152,
            40.629953
          ],
          [
            14.5081381,
            40.6299388
          ],
          [
            14.5080353,
            40.6299095
          ],
          [
            14.5078808,
            40.6298881
          ],
          [
            14.5077846,
            40.6298722
          ],
          [
            14.5077084,
            40.6298522
          ],
          [
            14.507634,
            40.6298198
          ],
          [
            14.5075768,
            40.6297608
          ],
          [
            14.5075172,
            40.629653
          ],
          [
            14.5074803,
            40.6295626
          ],
          [
            14.5074613,
            40.6294932
          ],
          [
            14.507427,
            40.6294047
          ],
          [
            14.5073883,
            40.6293004
          ],
          [
            14.5073473,
            40.629222
          ],
          [
            14.5072931,
            40.6291705
          ],
          [
            14.507206,
            40.6291314
          ],
          [
            14.5071073,
            40.6291152
          ],
          [
            14.5069082,
            40.6291091
          ],
          [
            14.5066736,
            40.6291185
          ],
          [
            14.5064073,
            40.6290899
          ],
          [
            14.5061635,
            40.6290747
          ],
          [
            14.5059524,
            40.6290875
          ],
          [
            14.5058279,
            40.6291196
          ],
          [
            14.5057648,
            40.6291689
          ],
          [
            14.5057214,
            40.629193
          ],
          [
            14.5055487,
            40.6293117
          ],
          [
            14.5054382,
            40.6293181
          ],
          [
            14.5052155,
            40.6292148
          ],
          [
            14.5050309,
            40.6291797
          ],
          [
            14.5048344,
            40.6291378
          ],
          [
            14.5047312,
            40.6290924
          ],
          [
            14.5045873,
            40.6290451
          ],
          [
            14.504485,
            40.6290148
          ],
          [
            14.5044261,
            40.6290337
          ],
          [
            14.5042713,
            40.6290423
          ],
          [
            14.5039929,
            40.6289432
          ],
          [
            14.5038543,
            40.6289175
          ],
          [
            14.5036014,
            40.6288948
          ],
          [
            14.5034348,
            40.6288857
          ],
          [
            14.5033404,
            40.6287852
          ]
        ]
      }
    }
  ]
}
