<?xml version="1.0" encoding="UTF-8"?>
<kml xmlns="http://www.opengis.net/kml/2.2">
  <Document>
    <name>Path of the Gods</name>
    <Style id="amalfi-route">
      <LineStyle>
        <color>ff0048e5</color>
        <width>5</width>
      </LineStyle>
    </Style>
    <Placemark>
      <name>Path of the Gods</name>
      <description>OpenStreetMap relation 4757514
License: ODbL-1.0
Distance: 5.19 km</description>
      <styleUrl>#amalfi-route</styleUrl>
      <LineString>
        <tessellate>1</tessellate>
        <coordinates>14.5397650,40.6292449,0 14.5397344,40.6291718,0 14.5397171,40.6291260,0 14.5396148,40.6288985,0 14.5395241,40.6287604,0 14.5394466,40.6286843,0 14.5393211,40.6285461,0 14.5392666,40.6284656,0 14.5391661,40.6283909,0 14.5391140,40.6283593,0 14.5391006,40.6283376,0 14.5390756,40.6282362,0 14.5390593,40.6281955,0 14.5390067,40.6281630,0 14.5387571,40.6281140,0 14.5387134,40.6281004,0 14.5385374,40.6279937,0 14.5384813,40.6279437,0 14.5384355,40.6278988,0 14.5383776,40.6278624,0 14.5382958,40.6279254,0 14.5382250,40.6279479,0 14.5381799,40.6279511,0 14.5381697,40.6279557,0 14.5381061,40.6279844,0 14.5380859,40.6279676,0 14.5380557,40.6279425,0 14.5378814,40.6278990,0 14.5377550,40.6278710,0 14.5378219,40.6277196,0 14.5378637,40.6275617,0 14.5378667,40.6273469,0 14.5378497,40.6272465,0 14.5378357,40.6272014,0 14.5378180,40.6271444,0 14.5377473,40.6269985,0 14.5376083,40.6267612,0 14.5375075,40.6266693,0 14.5373656,40.6265369,0 14.5371939,40.6263442,0 14.5370440,40.6261404,0 14.5369145,40.6259711,0 14.5366688,40.6257284,0 14.5365471,40.6256393,0 14.5364533,40.6255563,0 14.5363384,40.6254890,0 14.5362211,40.6254413,0 14.5360878,40.6253790,0 14.5360059,40.6253490,0 14.5359158,40.6253183,0 14.5358072,40.6252782,0 14.5357148,40.6252286,0 14.5356524,40.6252096,0 14.5354533,40.6251015,0 14.5353923,40.6250560,0 14.5353256,40.6250314,0 14.5352945,40.6250250,0 14.5352072,40.6250340,0 14.5351312,40.6250478,0 14.5350763,40.6250567,0 14.5349355,40.6250575,0 14.5348959,40.6250615,0 14.5348385,40.6250614,0 14.5347854,40.6250474,0 14.5347161,40.6250297,0 14.5346271,40.6250264,0 14.5345273,40.6250521,0 14.5344530,40.6250854,0 14.5343838,40.6251278,0 14.5343519,40.6251737,0 14.5343139,40.6252383,0 14.5343135,40.6252882,0 14.5343128,40.6253791,0 14.5342832,40.6254328,0 14.5342522,40.6254765,0 14.5341378,40.6255197,0 14.5340755,40.6255362,0 14.5339651,40.6255341,0 14.5338086,40.6255119,0 14.5336883,40.6254916,0 14.5336301,40.6254858,0 14.5335379,40.6254766,0 14.5335135,40.6254638,0 14.5333605,40.6253465,0 14.5332170,40.6252661,0 14.5330736,40.6252429,0 14.5330294,40.6252299,0 14.5329774,40.6251840,0 14.5329518,40.6251485,0 14.5329177,40.6250562,0 14.5329041,40.6250336,0 14.5328870,40.6250131,0 14.5328357,40.6249523,0 14.5327897,40.6249144,0 14.5327099,40.6248644,0 14.5326586,40.6248447,0 14.5325749,40.6248305,0 14.5324561,40.6248310,0 14.5322747,40.6248538,0 14.5320531,40.6248786,0 14.5318995,40.6248959,0 14.5316429,40.6249296,0 14.5313742,40.6249748,0 14.5312695,40.6249910,0 14.5312249,40.6250000,0 14.5311793,40.6250219,0 14.5311413,40.6250277,0 14.5311099,40.6250141,0 14.5310833,40.6249759,0 14.5310610,40.6249126,0 14.5310138,40.6247809,0 14.5309913,40.6247585,0 14.5309407,40.6247311,0 14.5308875,40.6247200,0 14.5308407,40.6247238,0 14.5307914,40.6247383,0 14.5307394,40.6247553,0 14.5306742,40.6247582,0 14.5306182,40.6247544,0 14.5305602,40.6247624,0 14.5305074,40.6247779,0 14.5304623,40.6248376,0 14.5304149,40.6249553,0 14.5303902,40.6249916,0 14.5303582,40.6250191,0 14.5302894,40.6250543,0 14.5302331,40.6250990,0 14.5300261,40.6252778,0 14.5299950,40.6253031,0 14.5299259,40.6253168,0 14.5298629,40.6253176,0 14.5298046,40.6253041,0 14.5297593,40.6252810,0 14.5297042,40.6252500,0 14.5296598,40.6252220,0 14.5296337,40.6252027,0 14.5295874,40.6251873,0 14.5295178,40.6251835,0 14.5294887,40.6251692,0 14.5294770,40.6251525,0 14.5294683,40.6251129,0 14.5294889,40.6250879,0 14.5295068,40.6250687,0 14.5295243,40.6250485,0 14.5295394,40.6250149,0 14.5295512,40.6249723,0 14.5295541,40.6249245,0 14.5295526,40.6248694,0 14.5295660,40.6247959,0 14.5295688,40.6247731,0 14.5295745,40.6247416,0 14.5295750,40.6247136,0 14.5295695,40.6246897,0 14.5295378,40.6246508,0 14.5294810,40.6245991,0 14.5294657,40.6245699,0 14.5294660,40.6245267,0 14.5294700,40.6244712,0 14.5294766,40.6244249,0 14.5294604,40.6243581,0 14.5294477,40.6242886,0 14.5294387,40.6242473,0 14.5294204,40.6242185,0 14.5293881,40.6242004,0 14.5292979,40.6241599,0 14.5292296,40.6241321,0 14.5291664,40.6241317,0 14.5291090,40.6241329,0 14.5290451,40.6241113,0 14.5289780,40.6240737,0 14.5289570,40.6240380,0 14.5289371,40.6239760,0 14.5289275,40.6238963,0 14.5289345,40.6238453,0 14.5289383,40.6238131,0 14.5289562,40.6237788,0 14.5290217,40.6236958,0 14.5290494,40.6236288,0 14.5290586,40.6235762,0 14.5290485,40.6235204,0 14.5290296,40.6234320,0 14.5290107,40.6233529,0 14.5289761,40.6232190,0 14.5289348,40.6231432,0 14.5288899,40.6230821,0 14.5288845,40.6230504,0 14.5288705,40.6229794,0 14.5288477,40.6228850,0 14.5288117,40.6227634,0 14.5287901,40.6225498,0 14.5287920,40.6224424,0 14.5288081,40.6223562,0 14.5288498,40.6222193,0 14.5288615,40.6221770,0 14.5288355,40.6221135,0 14.5287767,40.6220547,0 14.5287233,40.6220121,0 14.5286495,40.6219781,0 14.5285877,40.6219476,0 14.5285567,40.6219245,0 14.5285338,40.6218987,0 14.5285221,40.6218638,0 14.5285068,40.6218217,0 14.5284663,40.6217430,0 14.5284286,40.6216122,0 14.5283585,40.6213062,0 14.5283452,40.6212498,0 14.5283298,40.6212183,0 14.5283039,40.6211803,0 14.5282870,40.6211210,0 14.5283160,40.6210656,0 14.5283045,40.6209712,0 14.5282551,40.6208892,0 14.5282059,40.6208373,0 14.5281517,40.6207890,0 14.5280032,40.6206959,0 14.5278887,40.6208402,0 14.5277572,40.6209719,0 14.5275991,40.6211802,0 14.5274835,40.6213617,0 14.5274197,40.6213902,0 14.5273611,40.6213890,0 14.5273255,40.6213716,0 14.5272850,40.6213348,0 14.5271569,40.6212042,0 14.5270540,40.6211537,0 14.5269358,40.6210879,0 14.5268405,40.6210349,0 14.5267271,40.6210078,0 14.5266210,40.6209919,0 14.5265071,40.6209724,0 14.5264353,40.6209362,0 14.5263737,40.6209072,0 14.5263191,40.6208731,0 14.5262075,40.6208319,0 14.5261083,40.6208106,0 14.5257563,40.6207842,0 14.5255289,40.6207860,0 14.5254339,40.6208141,0 14.5253444,40.6208457,0 14.5252769,40.6208579,0 14.5250723,40.6208634,0 14.5250077,40.6208743,0 14.5249084,40.6209017,0 14.5248277,40.6209179,0 14.5247646,40.6209517,0 14.5246795,40.6209463,0 14.5246058,40.6209101,0 14.5241426,40.6208474,0 14.5239398,40.6208593,0 14.5238612,40.6208713,0 14.5238051,40.6208945,0 14.5237515,40.6209254,0 14.5236820,40.6210108,0 14.5236421,40.6210881,0 14.5236141,40.6212529,0 14.5235898,40.6212993,0 14.5235474,40.6213472,0 14.5233780,40.6214815,0 14.5232855,40.6215419,0 14.5232068,40.6215908,0 14.5231514,40.6216439,0 14.5230907,40.6216835,0 14.5230213,40.6216913,0 14.5229539,40.6216741,0 14.5228103,40.6216083,0 14.5227170,40.6215643,0 14.5226086,40.6214843,0 14.5225749,40.6214361,0 14.5225384,40.6213163,0 14.5224970,40.6212501,0 14.5224556,40.6212183,0 14.5224231,40.6212023,0 14.5223744,40.6211887,0 14.5223026,40.6211869,0 14.5222109,40.6212009,0 14.5220977,40.6212081,0 14.5219341,40.6212172,0 14.5218013,40.6212297,0 14.5217056,40.6212592,0 14.5216279,40.6213035,0 14.5215269,40.6213705,0 14.5214574,40.6214341,0 14.5214305,40.6214825,0 14.5213826,40.6215428,0 14.5212916,40.6215772,0 14.5211556,40.6216145,0 14.5209590,40.6216404,0 14.5208005,40.6216655,0 14.5206596,40.6216894,0 14.5205831,40.6216967,0 14.5204744,40.6217065,0 14.5203358,40.6217044,0 14.5201856,40.6217061,0 14.5200733,40.6217086,0 14.5200336,40.6217001,0 14.5199601,40.6216788,0 14.5198939,40.6216590,0 14.5198115,40.6216674,0 14.5197640,40.6216952,0 14.5196880,40.6217458,0 14.5196380,40.6218236,0 14.5196091,40.6218939,0 14.5194609,40.6220145,0 14.5194084,40.6220540,0 14.5193670,40.6220843,0 14.5193227,40.6221025,0 14.5192839,40.6221074,0 14.5192049,40.6220945,0 14.5191268,40.6220786,0 14.5190246,40.6220629,0 14.5188473,40.6220533,0 14.5186949,40.6220249,0 14.5185958,40.6220016,0 14.5184747,40.6219637,0 14.5183280,40.6219391,0 14.5181733,40.6219287,0 14.5180766,40.6219382,0 14.5179379,40.6219873,0 14.5178801,40.6220185,0 14.5178379,40.6220445,0 14.5177967,40.6220756,0 14.5177202,40.6221546,0 14.5176696,40.6222164,0 14.5176420,40.6222686,0 14.5176143,40.6223290,0 14.5175923,40.6223980,0 14.5175619,40.6224639,0 14.5175254,40.6225064,0 14.5174731,40.6225321,0 14.5173792,40.6226113,0 14.5173052,40.6226977,0 14.5172862,40.6227285,0 14.5172894,40.6227574,0 14.5172641,40.6228320,0 14.5172686,40.6229100,0 14.5173039,40.6229944,0 14.5173233,40.6230787,0 14.5173229,40.6231209,0 14.5173021,40.6231579,0 14.5172190,40.6232319,0 14.5170919,40.6233129,0 14.5169720,40.6233932,0 14.5169115,40.6234454,0 14.5168832,40.6234943,0 14.5168841,40.6235175,0 14.5169365,40.6236199,0 14.5169963,40.6236995,0 14.5170730,40.6240149,0 14.5171175,40.6240346,0 14.5171411,40.6240705,0 14.5171556,40.6241078,0 14.5171713,40.6241419,0 14.5171742,40.6241729,0 14.5171702,40.6241997,0 14.5171844,40.6242560,0 14.5171791,40.6242878,0 14.5171752,40.6243178,0 14.5171348,40.6243633,0 14.5171231,40.6244056,0 14.5171360,40.6244455,0 14.5171648,40.6244854,0 14.5173235,40.6245737,0 14.5174107,40.6246315,0 14.5174290,40.6246609,0 14.5174002,40.6247167,0 14.5172652,40.6248021,0 14.5171509,40.6248513,0 14.5170240,40.6249832,0 14.5169545,40.6250074,0 14.5167794,40.6250341,0 14.5167144,40.6250556,0 14.5166699,40.6250893,0 14.5166361,40.6251295,0 14.5166188,40.6251573,0 14.5165753,40.6251979,0 14.5165414,40.6252090,0 14.5164875,40.6252133,0 14.5164019,40.6252125,0 14.5162268,40.6251938,0 14.5159031,40.6250753,0 14.5158270,40.6250855,0 14.5155993,40.6251864,0 14.5152111,40.6252341,0 14.5151234,40.6252525,0 14.5150577,40.6252869,0 14.5148481,40.6254425,0 14.5148474,40.6255266,0 14.5145908,40.6257863,0 14.5145791,40.6258262,0 14.5146361,40.6260086,0 14.5145845,40.6260666,0 14.5145416,40.6261902,0 14.5145724,40.6263038,0 14.5145502,40.6263586,0 14.5145149,40.6264278,0 14.5145085,40.6264952,0 14.5145445,40.6266338,0 14.5145438,40.6266939,0 14.5145269,40.6270071,0 14.5145259,40.6273061,0 14.5145371,40.6274164,0 14.5145347,40.6275301,0 14.5145015,40.6275957,0 14.5144051,40.6276213,0 14.5142711,40.6275982,0 14.5141408,40.6275965,0 14.5139509,40.6276302,0 14.5135943,40.6277641,0 14.5134834,40.6277463,0 14.5133409,40.6277676,0 14.5131529,40.6277843,0 14.5130790,40.6278093,0 14.5130218,40.6278464,0 14.5129800,40.6278819,0 14.5128239,40.6281401,0 14.5125849,40.6283740,0 14.5124537,40.6284598,0 14.5123577,40.6285117,0 14.5122675,40.6285482,0 14.5119734,40.6286665,0 14.5117794,40.6287493,0 14.5114789,40.6288719,0 14.5114082,40.6288954,0 14.5113415,40.6289420,0 14.5112896,40.6289864,0 14.5112671,40.6290254,0 14.5112486,40.6291254,0 14.5112349,40.6291901,0 14.5112382,40.6292617,0 14.5112054,40.6293132,0 14.5110737,40.6293332,0 14.5109645,40.6293460,0 14.5109327,40.6293646,0 14.5109269,40.6294024,0 14.5109632,40.6294478,0 14.5110640,40.6295238,0 14.5110851,40.6295421,0 14.5110859,40.6295739,0 14.5110863,40.6296186,0 14.5110875,40.6296534,0 14.5110665,40.6297835,0 14.5110432,40.6298382,0 14.5110166,40.6299082,0 14.5109927,40.6299596,0 14.5109739,40.6300564,0 14.5109529,40.6301726,0 14.5109271,40.6302851,0 14.5109547,40.6303693,0 14.5109945,40.6304083,0 14.5110315,40.6304410,0 14.5110506,40.6304525,0 14.5110489,40.6304775,0 14.5110186,40.6305094,0 14.5109688,40.6305045,0 14.5109240,40.6304829,0 14.5108583,40.6304396,0 14.5107988,40.6303971,0 14.5107162,40.6303504,0 14.5106106,40.6303019,0 14.5105619,40.6302917,0 14.5105005,40.6302970,0 14.5104286,40.6303180,0 14.5103879,40.6303491,0 14.5103771,40.6303773,0 14.5103816,40.6304045,0 14.5103402,40.6304408,0 14.5102644,40.6304962,0 14.5102559,40.6305316,0 14.5102635,40.6305971,0 14.5103085,40.6306564,0 14.5103365,40.6306937,0 14.5103832,40.6307505,0 14.5103813,40.6307780,0 14.5103464,40.6308169,0 14.5103396,40.6308611,0 14.5103390,40.6308985,0 14.5103395,40.6309403,0 14.5103413,40.6309831,0 14.5103254,40.6310147,0 14.5102815,40.6310247,0 14.5102402,40.6309999,0 14.5101668,40.6309654,0 14.5101013,40.6309492,0 14.5100744,40.6309141,0 14.5100498,40.6308819,0 14.5099955,40.6308487,0 14.5099503,40.6307887,0 14.5099068,40.6307715,0 14.5098490,40.6307772,0 14.5097857,40.6307897,0 14.5097587,40.6307857,0 14.5097326,40.6307709,0 14.5097012,40.6307242,0 14.5096809,40.6306873,0 14.5096282,40.6306360,0 14.5095836,40.6306021,0 14.5095234,40.6305700,0 14.5094807,40.6305376,0 14.5094281,40.6305069,0 14.5093946,40.6304599,0 14.5093498,40.6303909,0 14.5093404,40.6302935,0 14.5093552,40.6302507,0 14.5093603,40.6301942,0 14.5092733,40.6301029,0 14.5091563,40.6300259,0 14.5091078,40.6299632,0 14.5090685,40.6299223,0 14.5090016,40.6298625,0 14.5089373,40.6298407,0 14.5088901,40.6298410,0 14.5088275,40.6298592,0 14.5087774,40.6298973,0 14.5087161,40.6299042,0 14.5086213,40.6298961,0 14.5084948,40.6299034,0 14.5083952,40.6299448,0 14.5083262,40.6299686,0 14.5082829,40.6299695,0 14.5082152,40.6299530,0 14.5081381,40.6299388,0 14.5080353,40.6299095,0 14.5078808,40.6298881,0 14.5077846,40.6298722,0 14.5077084,40.6298522,0 14.5076340,40.6298198,0 14.5075768,40.6297608,0 14.5075172,40.6296530,0 14.5074803,40.6295626,0 14.5074613,40.6294932,0 14.5074270,40.6294047,0 14.5073883,40.6293004,0 14.5073473,40.6292220,0 14.5072931,40.6291705,0 14.5072060,40.6291314,0 14.5071073,40.6291152,0 14.5069082,40.6291091,0 14.5066736,40.6291185,0 14.5064073,40.6290899,0 14.5061635,40.6290747,0 14.5059524,40.6290875,0 14.5058279,40.6291196,0 14.5057648,40.6291689,0 14.5057214,40.6291930,0 14.5055487,40.6293117,0 14.5054382,40.6293181,0 14.5052155,40.6292148,0 14.5050309,40.6291797,0 14.5048344,40.6291378,0 14.5047312,40.6290924,0 14.5045873,40.6290451,0 14.5044850,40.6290148,0 14.5044261,40.6290337,0 14.5042713,40.6290423,0 14.5039929,40.6289432,0 14.5038543,40.6289175,0 14.5036014,40.6288948,0 14.5034348,40.6288857,0 14.5033404,40.6287852,0</coordinates>
      </LineString>
    </Placemark>
  </Document>
</kml>
