<?xml version="1.0" encoding="UTF-8"?>
<gpx version="1.1" creator="Amalfi.Day" xmlns="http://www.topografix.com/GPX/1/1">
  <metadata>
    <name>Path of the Gods</name>
    <desc>OpenStreetMap relation 4757514</desc>
  </metadata>
  <trk>
    <name>Path of the Gods</name>
    <trkseg>
      <trkpt lat="40.6292449" lon="14.5397650" />
      <trkpt lat="40.6291718" lon="14.5397344" />
      <trkpt lat="40.6291260" lon="14.5397171" />
      <trkpt lat="40.6288985" lon="14.5396148" />
      <trkpt lat="40.6287604" lon="14.5395241" />
      <trkpt lat="40.6286843" lon="14.5394466" />
      <trkpt lat="40.6285461" lon="14.5393211" />
      <trkpt lat="40.6284656" lon="14.5392666" />
      <trkpt lat="40.6283909" lon="14.5391661" />
      <trkpt lat="40.6283593" lon="14.5391140" />
      <trkpt lat="40.6283376" lon="14.5391006" />
      <trkpt lat="40.6282362" lon="14.5390756" />
      <trkpt lat="40.6281955" lon="14.5390593" />
      <trkpt lat="40.6281630" lon="14.5390067" />
      <trkpt lat="40.6281140" lon="14.5387571" />
      <trkpt lat="40.6281004" lon="14.5387134" />
      <trkpt lat="40.6279937" lon="14.5385374" />
      <trkpt lat="40.6279437" lon="14.5384813" />
      <trkpt lat="40.6278988" lon="14.5384355" />
      <trkpt lat="40.6278624" lon="14.5383776" />
      <trkpt lat="40.6279254" lon="14.5382958" />
      <trkpt lat="40.6279479" lon="14.5382250" />
      <trkpt lat="40.6279511" lon="14.5381799" />
      <trkpt lat="40.6279557" lon="14.5381697" />
      <trkpt lat="40.6279844" lon="14.5381061" />
      <trkpt lat="40.6279676" lon="14.5380859" />
      <trkpt lat="40.6279425" lon="14.5380557" />
      <trkpt lat="40.6278990" lon="14.5378814" />
      <trkpt lat="40.6278710" lon="14.5377550" />
      <trkpt lat="40.6277196" lon="14.5378219" />
      <trkpt lat="40.6275617" lon="14.5378637" />
      <trkpt lat="40.6273469" lon="14.5378667" />
      <trkpt lat="40.6272465" lon="14.5378497" />
      <trkpt lat="40.6272014" lon="14.5378357" />
      <trkpt lat="40.6271444" lon="14.5378180" />
      <trkpt lat="40.6269985" lon="14.5377473" />
      <trkpt lat="40.6267612" lon="14.5376083" />
      <trkpt lat="40.6266693" lon="14.5375075" />
      <trkpt lat="40.6265369" lon="14.5373656" />
      <trkpt lat="40.6263442" lon="14.5371939" />
      <trkpt lat="40.6261404" lon="14.5370440" />
      <trkpt lat="40.6259711" lon="14.5369145" />
      <trkpt lat="40.6257284" lon="14.5366688" />
      <trkpt lat="40.6256393" lon="14.5365471" />
      <trkpt lat="40.6255563" lon="14.5364533" />
      <trkpt lat="40.6254890" lon="14.5363384" />
      <trkpt lat="40.6254413" lon="14.5362211" />
      <trkpt lat="40.6253790" lon="14.5360878" />
      <trkpt lat="40.6253490" lon="14.5360059" />
      <trkpt lat="40.6253183" lon="14.5359158" />
      <trkpt lat="40.6252782" lon="14.5358072" />
      <trkpt lat="40.6252286" lon="14.5357148" />
      <trkpt lat="40.6252096" lon="14.5356524" />
      <trkpt lat="40.6251015" lon="14.5354533" />
      <trkpt lat="40.6250560" lon="14.5353923" />
      <trkpt lat="40.6250314" lon="14.5353256" />
      <trkpt lat="40.6250250" lon="14.5352945" />
      <trkpt lat="40.6250340" lon="14.5352072" />
      <trkpt lat="40.6250478" lon="14.5351312" />
      <trkpt lat="40.6250567" lon="14.5350763" />
      <trkpt lat="40.6250575" lon="14.5349355" />
      <trkpt lat="40.6250615" lon="14.5348959" />
      <trkpt lat="40.6250614" lon="14.5348385" />
      <trkpt lat="40.6250474" lon="14.5347854" />
      <trkpt lat="40.6250297" lon="14.5347161" />
      <trkpt lat="40.6250264" lon="14.5346271" />
      <trkpt lat="40.6250521" lon="14.5345273" />
      <trkpt lat="40.6250854" lon="14.5344530" />
      <trkpt lat="40.6251278" lon="14.5343838" />
      <trkpt lat="40.6251737" lon="14.5343519" />
      <trkpt lat="40.6252383" lon="14.5343139" />
      <trkpt lat="40.6252882" lon="14.5343135" />
      <trkpt lat="40.6253791" lon="14.5343128" />
      <trkpt lat="40.6254328" lon="14.5342832" />
      <trkpt lat="40.6254765" lon="14.5342522" />
      <trkpt lat="40.6255197" lon="14.5341378" />
      <trkpt lat="40.6255362" lon="14.5340755" />
      <trkpt lat="40.6255341" lon="14.5339651" />
      <trkpt lat="40.6255119" lon="14.5338086" />
      <trkpt lat="40.6254916" lon="14.5336883" />
      <trkpt lat="40.6254858" lon="14.5336301" />
      <trkpt lat="40.6254766" lon="14.5335379" />
      <trkpt lat="40.6254638" lon="14.5335135" />
      <trkpt lat="40.6253465" lon="14.5333605" />
      <trkpt lat="40.6252661" lon="14.5332170" />
      <trkpt lat="40.6252429" lon="14.5330736" />
      <trkpt lat="40.6252299" lon="14.5330294" />
      <trkpt lat="40.6251840" lon="14.5329774" />
      <trkpt lat="40.6251485" lon="14.5329518" />
      <trkpt lat="40.6250562" lon="14.5329177" />
      <trkpt lat="40.6250336" lon="14.5329041" />
      <trkpt lat="40.6250131" lon="14.5328870" />
      <trkpt lat="40.6249523" lon="14.5328357" />
      <trkpt lat="40.6249144" lon="14.5327897" />
      <trkpt lat="40.6248644" lon="14.5327099" />
      <trkpt lat="40.6248447" lon="14.5326586" />
      <trkpt lat="40.6248305" lon="14.5325749" />
      <trkpt lat="40.6248310" lon="14.5324561" />
      <trkpt lat="40.6248538" lon="14.5322747" />
      <trkpt lat="40.6248786" lon="14.5320531" />
      <trkpt lat="40.6248959" lon="14.5318995" />
      <trkpt lat="40.6249296" lon="14.5316429" />
      <trkpt lat="40.6249748" lon="14.5313742" />
      <trkpt lat="40.6249910" lon="14.5312695" />
      <trkpt lat="40.6250000" lon="14.5312249" />
      <trkpt lat="40.6250219" lon="14.5311793" />
      <trkpt lat="40.6250277" lon="14.5311413" />
      <trkpt lat="40.6250141" lon="14.5311099" />
      <trkpt lat="40.6249759" lon="14.5310833" />
      <trkpt lat="40.6249126" lon="14.5310610" />
      <trkpt lat="40.6247809" lon="14.5310138" />
      <trkpt lat="40.6247585" lon="14.5309913" />
      <trkpt lat="40.6247311" lon="14.5309407" />
      <trkpt lat="40.6247200" lon="14.5308875" />
      <trkpt lat="40.6247238" lon="14.5308407" />
      <trkpt lat="40.6247383" lon="14.5307914" />
      <trkpt lat="40.6247553" lon="14.5307394" />
      <trkpt lat="40.6247582" lon="14.5306742" />
      <trkpt lat="40.6247544" lon="14.5306182" />
      <trkpt lat="40.6247624" lon="14.5305602" />
      <trkpt lat="40.6247779" lon="14.5305074" />
      <trkpt lat="40.6248376" lon="14.5304623" />
      <trkpt lat="40.6249553" lon="14.5304149" />
      <trkpt lat="40.6249916" lon="14.5303902" />
      <trkpt lat="40.6250191" lon="14.5303582" />
      <trkpt lat="40.6250543" lon="14.5302894" />
      <trkpt lat="40.6250990" lon="14.5302331" />
      <trkpt lat="40.6252778" lon="14.5300261" />
      <trkpt lat="40.6253031" lon="14.5299950" />
      <trkpt lat="40.6253168" lon="14.5299259" />
      <trkpt lat="40.6253176" lon="14.5298629" />
      <trkpt lat="40.6253041" lon="14.5298046" />
      <trkpt lat="40.6252810" lon="14.5297593" />
      <trkpt lat="40.6252500" lon="14.5297042" />
      <trkpt lat="40.6252220" lon="14.5296598" />
      <trkpt lat="40.6252027" lon="14.5296337" />
      <trkpt lat="40.6251873" lon="14.5295874" />
      <trkpt lat="40.6251835" lon="14.5295178" />
      <trkpt lat="40.6251692" lon="14.5294887" />
      <trkpt lat="40.6251525" lon="14.5294770" />
      <trkpt lat="40.6251129" lon="14.5294683" />
      <trkpt lat="40.6250879" lon="14.5294889" />
      <trkpt lat="40.6250687" lon="14.5295068" />
      <trkpt lat="40.6250485" lon="14.5295243" />
      <trkpt lat="40.6250149" lon="14.5295394" />
      <trkpt lat="40.6249723" lon="14.5295512" />
      <trkpt lat="40.6249245" lon="14.5295541" />
      <trkpt lat="40.6248694" lon="14.5295526" />
      <trkpt lat="40.6247959" lon="14.5295660" />
      <trkpt lat="40.6247731" lon="14.5295688" />
      <trkpt lat="40.6247416" lon="14.5295745" />
      <trkpt lat="40.6247136" lon="14.5295750" />
      <trkpt lat="40.6246897" lon="14.5295695" />
      <trkpt lat="40.6246508" lon="14.5295378" />
      <trkpt lat="40.6245991" lon="14.5294810" />
      <trkpt lat="40.6245699" lon="14.5294657" />
      <trkpt lat="40.6245267" lon="14.5294660" />
      <trkpt lat="40.6244712" lon="14.5294700" />
      <trkpt lat="40.6244249" lon="14.5294766" />
      <trkpt lat="40.6243581" lon="14.5294604" />
      <trkpt lat="40.6242886" lon="14.5294477" />
      <trkpt lat="40.6242473" lon="14.5294387" />
      <trkpt lat="40.6242185" lon="14.5294204" />
      <trkpt lat="40.6242004" lon="14.5293881" />
      <trkpt lat="40.6241599" lon="14.5292979" />
      <trkpt lat="40.6241321" lon="14.5292296" />
      <trkpt lat="40.6241317" lon="14.5291664" />
      <trkpt lat="40.6241329" lon="14.5291090" />
      <trkpt lat="40.6241113" lon="14.5290451" />
      <trkpt lat="40.6240737" lon="14.5289780" />
      <trkpt lat="40.6240380" lon="14.5289570" />
      <trkpt lat="40.6239760" lon="14.5289371" />
      <trkpt lat="40.6238963" lon="14.5289275" />
      <trkpt lat="40.6238453" lon="14.5289345" />
      <trkpt lat="40.6238131" lon="14.5289383" />
      <trkpt lat="40.6237788" lon="14.5289562" />
      <trkpt lat="40.6236958" lon="14.5290217" />
      <trkpt lat="40.6236288" lon="14.5290494" />
      <trkpt lat="40.6235762" lon="14.5290586" />
      <trkpt lat="40.6235204" lon="14.5290485" />
      <trkpt lat="40.6234320" lon="14.5290296" />
      <trkpt lat="40.6233529" lon="14.5290107" />
      <trkpt lat="40.6232190" lon="14.5289761" />
      <trkpt lat="40.6231432" lon="14.5289348" />
      <trkpt lat="40.6230821" lon="14.5288899" />
      <trkpt lat="40.6230504" lon="14.5288845" />
      <trkpt lat="40.6229794" lon="14.5288705" />
      <trkpt lat="40.6228850" lon="14.5288477" />
      <trkpt lat="40.6227634" lon="14.5288117" />
      <trkpt lat="40.6225498" lon="14.5287901" />
      <trkpt lat="40.6224424" lon="14.5287920" />
      <trkpt lat="40.6223562" lon="14.5288081" />
      <trkpt lat="40.6222193" lon="14.5288498" />
      <trkpt lat="40.6221770" lon="14.5288615" />
      <trkpt lat="40.6221135" lon="14.5288355" />
      <trkpt lat="40.6220547" lon="14.5287767" />
      <trkpt lat="40.6220121" lon="14.5287233" />
      <trkpt lat="40.6219781" lon="14.5286495" />
      <trkpt lat="40.6219476" lon="14.5285877" />
      <trkpt lat="40.6219245" lon="14.5285567" />
      <trkpt lat="40.6218987" lon="14.5285338" />
      <trkpt lat="40.6218638" lon="14.5285221" />
      <trkpt lat="40.6218217" lon="14.5285068" />
      <trkpt lat="40.6217430" lon="14.5284663" />
      <trkpt lat="40.6216122" lon="14.5284286" />
      <trkpt lat="40.6213062" lon="14.5283585" />
      <trkpt lat="40.6212498" lon="14.5283452" />
      <trkpt lat="40.6212183" lon="14.5283298" />
      <trkpt lat="40.6211803" lon="14.5283039" />
      <trkpt lat="40.6211210" lon="14.5282870" />
      <trkpt lat="40.6210656" lon="14.5283160" />
      <trkpt lat="40.6209712" lon="14.5283045" />
      <trkpt lat="40.6208892" lon="14.5282551" />
      <trkpt lat="40.6208373" lon="14.5282059" />
      <trkpt lat="40.6207890" lon="14.5281517" />
      <trkpt lat="40.6206959" lon="14.5280032" />
      <trkpt lat="40.6208402" lon="14.5278887" />
      <trkpt lat="40.6209719" lon="14.5277572" />
      <trkpt lat="40.6211802" lon="14.5275991" />
      <trkpt lat="40.6213617" lon="14.5274835" />
      <trkpt lat="40.6213902" lon="14.5274197" />
      <trkpt lat="40.6213890" lon="14.5273611" />
      <trkpt lat="40.6213716" lon="14.5273255" />
      <trkpt lat="40.6213348" lon="14.5272850" />
      <trkpt lat="40.6212042" lon="14.5271569" />
      <trkpt lat="40.6211537" lon="14.5270540" />
      <trkpt lat="40.6210879" lon="14.5269358" />
      <trkpt lat="40.6210349" lon="14.5268405" />
      <trkpt lat="40.6210078" lon="14.5267271" />
      <trkpt lat="40.6209919" lon="14.5266210" />
      <trkpt lat="40.6209724" lon="14.5265071" />
      <trkpt lat="40.6209362" lon="14.5264353" />
      <trkpt lat="40.6209072" lon="14.5263737" />
      <trkpt lat="40.6208731" lon="14.5263191" />
      <trkpt lat="40.6208319" lon="14.5262075" />
      <trkpt lat="40.6208106" lon="14.5261083" />
      <trkpt lat="40.6207842" lon="14.5257563" />
      <trkpt lat="40.6207860" lon="14.5255289" />
      <trkpt lat="40.6208141" lon="14.5254339" />
      <trkpt lat="40.6208457" lon="14.5253444" />
      <trkpt lat="40.6208579" lon="14.5252769" />
      <trkpt lat="40.6208634" lon="14.5250723" />
      <trkpt lat="40.6208743" lon="14.5250077" />
      <trkpt lat="40.6209017" lon="14.5249084" />
      <trkpt lat="40.6209179" lon="14.5248277" />
      <trkpt lat="40.6209517" lon="14.5247646" />
      <trkpt lat="40.6209463" lon="14.5246795" />
      <trkpt lat="40.6209101" lon="14.5246058" />
      <trkpt lat="40.6208474" lon="14.5241426" />
      <trkpt lat="40.6208593" lon="14.5239398" />
      <trkpt lat="40.6208713" lon="14.5238612" />
      <trkpt lat="40.6208945" lon="14.5238051" />
      <trkpt lat="40.6209254" lon="14.5237515" />
      <trkpt lat="40.6210108" lon="14.5236820" />
      <trkpt lat="40.6210881" lon="14.5236421" />
      <trkpt lat="40.6212529" lon="14.5236141" />
      <trkpt lat="40.6212993" lon="14.5235898" />
      <trkpt lat="40.6213472" lon="14.5235474" />
      <trkpt lat="40.6214815" lon="14.5233780" />
      <trkpt lat="40.6215419" lon="14.5232855" />
      <trkpt lat="40.6215908" lon="14.5232068" />
      <trkpt lat="40.6216439" lon="14.5231514" />
      <trkpt lat="40.6216835" lon="14.5230907" />
      <trkpt lat="40.6216913" lon="14.5230213" />
      <trkpt lat="40.6216741" lon="14.5229539" />
      <trkpt lat="40.6216083" lon="14.5228103" />
      <trkpt lat="40.6215643" lon="14.5227170" />
      <trkpt lat="40.6214843" lon="14.5226086" />
      <trkpt lat="40.6214361" lon="14.5225749" />
      <trkpt lat="40.6213163" lon="14.5225384" />
      <trkpt lat="40.6212501" lon="14.5224970" />
      <trkpt lat="40.6212183" lon="14.5224556" />
      <trkpt lat="40.6212023" lon="14.5224231" />
      <trkpt lat="40.6211887" lon="14.5223744" />
      <trkpt lat="40.6211869" lon="14.5223026" />
      <trkpt lat="40.6212009" lon="14.5222109" />
      <trkpt lat="40.6212081" lon="14.5220977" />
      <trkpt lat="40.6212172" lon="14.5219341" />
      <trkpt lat="40.6212297" lon="14.5218013" />
      <trkpt lat="40.6212592" lon="14.5217056" />
      <trkpt lat="40.6213035" lon="14.5216279" />
      <trkpt lat="40.6213705" lon="14.5215269" />
      <trkpt lat="40.6214341" lon="14.5214574" />
      <trkpt lat="40.6214825" lon="14.5214305" />
      <trkpt lat="40.6215428" lon="14.5213826" />
      <trkpt lat="40.6215772" lon="14.5212916" />
      <trkpt lat="40.6216145" lon="14.5211556" />
      <trkpt lat="40.6216404" lon="14.5209590" />
      <trkpt lat="40.6216655" lon="14.5208005" />
      <trkpt lat="40.6216894" lon="14.5206596" />
      <trkpt lat="40.6216967" lon="14.5205831" />
      <trkpt lat="40.6217065" lon="14.5204744" />
      <trkpt lat="40.6217044" lon="14.5203358" />
      <trkpt lat="40.6217061" lon="14.5201856" />
      <trkpt lat="40.6217086" lon="14.5200733" />
      <trkpt lat="40.6217001" lon="14.5200336" />
      <trkpt lat="40.6216788" lon="14.5199601" />
      <trkpt lat="40.6216590" lon="14.5198939" />
      <trkpt lat="40.6216674" lon="14.5198115" />
      <trkpt lat="40.6216952" lon="14.5197640" />
      <trkpt lat="40.6217458" lon="14.5196880" />
      <trkpt lat="40.6218236" lon="14.5196380" />
      <trkpt lat="40.6218939" lon="14.5196091" />
      <trkpt lat="40.6220145" lon="14.5194609" />
      <trkpt lat="40.6220540" lon="14.5194084" />
      <trkpt lat="40.6220843" lon="14.5193670" />
      <trkpt lat="40.6221025" lon="14.5193227" />
      <trkpt lat="40.6221074" lon="14.5192839" />
      <trkpt lat="40.6220945" lon="14.5192049" />
      <trkpt lat="40.6220786" lon="14.5191268" />
      <trkpt lat="40.6220629" lon="14.5190246" />
      <trkpt lat="40.6220533" lon="14.5188473" />
      <trkpt lat="40.6220249" lon="14.5186949" />
      <trkpt lat="40.6220016" lon="14.5185958" />
      <trkpt lat="40.6219637" lon="14.5184747" />
      <trkpt lat="40.6219391" lon="14.5183280" />
      <trkpt lat="40.6219287" lon="14.5181733" />
      <trkpt lat="40.6219382" lon="14.5180766" />
      <trkpt lat="40.6219873" lon="14.5179379" />
      <trkpt lat="40.6220185" lon="14.5178801" />
      <trkpt lat="40.6220445" lon="14.5178379" />
      <trkpt lat="40.6220756" lon="14.5177967" />
      <trkpt lat="40.6221546" lon="14.5177202" />
      <trkpt lat="40.6222164" lon="14.5176696" />
      <trkpt lat="40.6222686" lon="14.5176420" />
      <trkpt lat="40.6223290" lon="14.5176143" />
      <trkpt lat="40.6223980" lon="14.5175923" />
      <trkpt lat="40.6224639" lon="14.5175619" />
      <trkpt lat="40.6225064" lon="14.5175254" />
      <trkpt lat="40.6225321" lon="14.5174731" />
      <trkpt lat="40.6226113" lon="14.5173792" />
      <trkpt lat="40.6226977" lon="14.5173052" />
      <trkpt lat="40.6227285" lon="14.5172862" />
      <trkpt lat="40.6227574" lon="14.5172894" />
      <trkpt lat="40.6228320" lon="14.5172641" />
      <trkpt lat="40.6229100" lon="14.5172686" />
      <trkpt lat="40.6229944" lon="14.5173039" />
      <trkpt lat="40.6230787" lon="14.5173233" />
      <trkpt lat="40.6231209" lon="14.5173229" />
      <trkpt lat="40.6231579" lon="14.5173021" />
      <trkpt lat="40.6232319" lon="14.5172190" />
      <trkpt lat="40.6233129" lon="14.5170919" />
      <trkpt lat="40.6233932" lon="14.5169720" />
      <trkpt lat="40.6234454" lon="14.5169115" />
      <trkpt lat="40.6234943" lon="14.5168832" />
      <trkpt lat="40.6235175" lon="14.5168841" />
      <trkpt lat="40.6236199" lon="14.5169365" />
      <trkpt lat="40.6236995" lon="14.5169963" />
      <trkpt lat="40.6240149" lon="14.5170730" />
      <trkpt lat="40.6240346" lon="14.5171175" />
      <trkpt lat="40.6240705" lon="14.5171411" />
      <trkpt lat="40.6241078" lon="14.5171556" />
      <trkpt lat="40.6241419" lon="14.5171713" />
      <trkpt lat="40.6241729" lon="14.5171742" />
      <trkpt lat="40.6241997" lon="14.5171702" />
      <trkpt lat="40.6242560" lon="14.5171844" />
      <trkpt lat="40.6242878" lon="14.5171791" />
      <trkpt lat="40.6243178" lon="14.5171752" />
      <trkpt lat="40.6243633" lon="14.5171348" />
      <trkpt lat="40.6244056" lon="14.5171231" />
      <trkpt lat="40.6244455" lon="14.5171360" />
      <trkpt lat="40.6244854" lon="14.5171648" />
      <trkpt lat="40.6245737" lon="14.5173235" />
      <trkpt lat="40.6246315" lon="14.5174107" />
      <trkpt lat="40.6246609" lon="14.5174290" />
      <trkpt lat="40.6247167" lon="14.5174002" />
      <trkpt lat="40.6248021" lon="14.5172652" />
      <trkpt lat="40.6248513" lon="14.5171509" />
      <trkpt lat="40.6249832" lon="14.5170240" />
      <trkpt lat="40.6250074" lon="14.5169545" />
      <trkpt lat="40.6250341" lon="14.5167794" />
      <trkpt lat="40.6250556" lon="14.5167144" />
      <trkpt lat="40.6250893" lon="14.5166699" />
      <trkpt lat="40.6251295" lon="14.5166361" />
      <trkpt lat="40.6251573" lon="14.5166188" />
      <trkpt lat="40.6251979" lon="14.5165753" />
      <trkpt lat="40.6252090" lon="14.5165414" />
      <trkpt lat="40.6252133" lon="14.5164875" />
      <trkpt lat="40.6252125" lon="14.5164019" />
      <trkpt lat="40.6251938" lon="14.5162268" />
      <trkpt lat="40.6250753" lon="14.5159031" />
      <trkpt lat="40.6250855" lon="14.5158270" />
      <trkpt lat="40.6251864" lon="14.5155993" />
      <trkpt lat="40.6252341" lon="14.5152111" />
      <trkpt lat="40.6252525" lon="14.5151234" />
      <trkpt lat="40.6252869" lon="14.5150577" />
      <trkpt lat="40.6254425" lon="14.5148481" />
      <trkpt lat="40.6255266" lon="14.5148474" />
      <trkpt lat="40.6257863" lon="14.5145908" />
      <trkpt lat="40.6258262" lon="14.5145791" />
      <trkpt lat="40.6260086" lon="14.5146361" />
      <trkpt lat="40.6260666" lon="14.5145845" />
      <trkpt lat="40.6261902" lon="14.5145416" />
      <trkpt lat="40.6263038" lon="14.5145724" />
      <trkpt lat="40.6263586" lon="14.5145502" />
      <trkpt lat="40.6264278" lon="14.5145149" />
      <trkpt lat="40.6264952" lon="14.5145085" />
      <trkpt lat="40.6266338" lon="14.5145445" />
      <trkpt lat="40.6266939" lon="14.5145438" />
      <trkpt lat="40.6270071" lon="14.5145269" />
      <trkpt lat="40.6273061" lon="14.5145259" />
      <trkpt lat="40.6274164" lon="14.5145371" />
      <trkpt lat="40.6275301" lon="14.5145347" />
      <trkpt lat="40.6275957" lon="14.5145015" />
      <trkpt lat="40.6276213" lon="14.5144051" />
      <trkpt lat="40.6275982" lon="14.5142711" />
      <trkpt lat="40.6275965" lon="14.5141408" />
      <trkpt lat="40.6276302" lon="14.5139509" />
      <trkpt lat="40.6277641" lon="14.5135943" />
      <trkpt lat="40.6277463" lon="14.5134834" />
      <trkpt lat="40.6277676" lon="14.5133409" />
      <trkpt lat="40.6277843" lon="14.5131529" />
      <trkpt lat="40.6278093" lon="14.5130790" />
      <trkpt lat="40.6278464" lon="14.5130218" />
      <trkpt lat="40.6278819" lon="14.5129800" />
      <trkpt lat="40.6281401" lon="14.5128239" />
      <trkpt lat="40.6283740" lon="14.5125849" />
      <trkpt lat="40.6284598" lon="14.5124537" />
      <trkpt lat="40.6285117" lon="14.5123577" />
      <trkpt lat="40.6285482" lon="14.5122675" />
      <trkpt lat="40.6286665" lon="14.5119734" />
      <trkpt lat="40.6287493" lon="14.5117794" />
      <trkpt lat="40.6288719" lon="14.5114789" />
      <trkpt lat="40.6288954" lon="14.5114082" />
      <trkpt lat="40.6289420" lon="14.5113415" />
      <trkpt lat="40.6289864" lon="14.5112896" />
      <trkpt lat="40.6290254" lon="14.5112671" />
      <trkpt lat="40.6291254" lon="14.5112486" />
      <trkpt lat="40.6291901" lon="14.5112349" />
      <trkpt lat="40.6292617" lon="14.5112382" />
      <trkpt lat="40.6293132" lon="14.5112054" />
      <trkpt lat="40.6293332" lon="14.5110737" />
      <trkpt lat="40.6293460" lon="14.5109645" />
      <trkpt lat="40.6293646" lon="14.5109327" />
      <trkpt lat="40.6294024" lon="14.5109269" />
      <trkpt lat="40.6294478" lon="14.5109632" />
      <trkpt lat="40.6295238" lon="14.5110640" />
      <trkpt lat="40.6295421" lon="14.5110851" />
      <trkpt lat="40.6295739" lon="14.5110859" />
      <trkpt lat="40.6296186" lon="14.5110863" />
      <trkpt lat="40.6296534" lon="14.5110875" />
      <trkpt lat="40.6297835" lon="14.5110665" />
      <trkpt lat="40.6298382" lon="14.5110432" />
      <trkpt lat="40.6299082" lon="14.5110166" />
      <trkpt lat="40.6299596" lon="14.5109927" />
      <trkpt lat="40.6300564" lon="14.5109739" />
      <trkpt lat="40.6301726" lon="14.5109529" />
      <trkpt lat="40.6302851" lon="14.5109271" />
      <trkpt lat="40.6303693" lon="14.5109547" />
      <trkpt lat="40.6304083" lon="14.5109945" />
      <trkpt lat="40.6304410" lon="14.5110315" />
      <trkpt lat="40.6304525" lon="14.5110506" />
      <trkpt lat="40.6304775" lon="14.5110489" />
      <trkpt lat="40.6305094" lon="14.5110186" />
      <trkpt lat="40.6305045" lon="14.5109688" />
      <trkpt lat="40.6304829" lon="14.5109240" />
      <trkpt lat="40.6304396" lon="14.5108583" />
      <trkpt lat="40.6303971" lon="14.5107988" />
      <trkpt lat="40.6303504" lon="14.5107162" />
      <trkpt lat="40.6303019" lon="14.5106106" />
      <trkpt lat="40.6302917" lon="14.5105619" />
      <trkpt lat="40.6302970" lon="14.5105005" />
      <trkpt lat="40.6303180" lon="14.5104286" />
      <trkpt lat="40.6303491" lon="14.5103879" />
      <trkpt lat="40.6303773" lon="14.5103771" />
      <trkpt lat="40.6304045" lon="14.5103816" />
      <trkpt lat="40.6304408" lon="14.5103402" />
      <trkpt lat="40.6304962" lon="14.5102644" />
      <trkpt lat="40.6305316" lon="14.5102559" />
      <trkpt lat="40.6305971" lon="14.5102635" />
      <trkpt lat="40.6306564" lon="14.5103085" />
      <trkpt lat="40.6306937" lon="14.5103365" />
      <trkpt lat="40.6307505" lon="14.5103832" />
      <trkpt lat="40.6307780" lon="14.5103813" />
      <trkpt lat="40.6308169" lon="14.5103464" />
      <trkpt lat="40.6308611" lon="14.5103396" />
      <trkpt lat="40.6308985" lon="14.5103390" />
      <trkpt lat="40.6309403" lon="14.5103395" />
      <trkpt lat="40.6309831" lon="14.5103413" />
      <trkpt lat="40.6310147" lon="14.5103254" />
      <trkpt lat="40.6310247" lon="14.5102815" />
      <trkpt lat="40.6309999" lon="14.5102402" />
      <trkpt lat="40.6309654" lon="14.5101668" />
      <trkpt lat="40.6309492" lon="14.5101013" />
      <trkpt lat="40.6309141" lon="14.5100744" />
      <trkpt lat="40.6308819" lon="14.5100498" />
      <trkpt lat="40.6308487" lon="14.5099955" />
      <trkpt lat="40.6307887" lon="14.5099503" />
      <trkpt lat="40.6307715" lon="14.5099068" />
      <trkpt lat="40.6307772" lon="14.5098490" />
      <trkpt lat="40.6307897" lon="14.5097857" />
      <trkpt lat="40.6307857" lon="14.5097587" />
      <trkpt lat="40.6307709" lon="14.5097326" />
      <trkpt lat="40.6307242" lon="14.5097012" />
      <trkpt lat="40.6306873" lon="14.5096809" />
      <trkpt lat="40.6306360" lon="14.5096282" />
      <trkpt lat="40.6306021" lon="14.5095836" />
      <trkpt lat="40.6305700" lon="14.5095234" />
      <trkpt lat="40.6305376" lon="14.5094807" />
      <trkpt lat="40.6305069" lon="14.5094281" />
      <trkpt lat="40.6304599" lon="14.5093946" />
      <trkpt lat="40.6303909" lon="14.5093498" />
      <trkpt lat="40.6302935" lon="14.5093404" />
      <trkpt lat="40.6302507" lon="14.5093552" />
      <trkpt lat="40.6301942" lon="14.5093603" />
      <trkpt lat="40.6301029" lon="14.5092733" />
      <trkpt lat="40.6300259" lon="14.5091563" />
      <trkpt lat="40.6299632" lon="14.5091078" />
      <trkpt lat="40.6299223" lon="14.5090685" />
      <trkpt lat="40.6298625" lon="14.5090016" />
      <trkpt lat="40.6298407" lon="14.5089373" />
      <trkpt lat="40.6298410" lon="14.5088901" />
      <trkpt lat="40.6298592" lon="14.5088275" />
      <trkpt lat="40.6298973" lon="14.5087774" />
      <trkpt lat="40.6299042" lon="14.5087161" />
      <trkpt lat="40.6298961" lon="14.5086213" />
      <trkpt lat="40.6299034" lon="14.5084948" />
      <trkpt lat="40.6299448" lon="14.5083952" />
      <trkpt lat="40.6299686" lon="14.5083262" />
      <trkpt lat="40.6299695" lon="14.5082829" />
      <trkpt lat="40.6299530" lon="14.5082152" />
      <trkpt lat="40.6299388" lon="14.5081381" />
      <trkpt lat="40.6299095" lon="14.5080353" />
      <trkpt lat="40.6298881" lon="14.5078808" />
      <trkpt lat="40.6298722" lon="14.5077846" />
      <trkpt lat="40.6298522" lon="14.5077084" />
      <trkpt lat="40.6298198" lon="14.5076340" />
      <trkpt lat="40.6297608" lon="14.5075768" />
      <trkpt lat="40.6296530" lon="14.5075172" />
      <trkpt lat="40.6295626" lon="14.5074803" />
      <trkpt lat="40.6294932" lon="14.5074613" />
      <trkpt lat="40.6294047" lon="14.5074270" />
      <trkpt lat="40.6293004" lon="14.5073883" />
      <trkpt lat="40.6292220" lon="14.5073473" />
      <trkpt lat="40.6291705" lon="14.5072931" />
      <trkpt lat="40.6291314" lon="14.5072060" />
      <trkpt lat="40.6291152" lon="14.5071073" />
      <trkpt lat="40.6291091" lon="14.5069082" />
      <trkpt lat="40.6291185" lon="14.5066736" />
      <trkpt lat="40.6290899" lon="14.5064073" />
      <trkpt lat="40.6290747" lon="14.5061635" />
      <trkpt lat="40.6290875" lon="14.5059524" />
      <trkpt lat="40.6291196" lon="14.5058279" />
      <trkpt lat="40.6291689" lon="14.5057648" />
      <trkpt lat="40.6291930" lon="14.5057214" />
      <trkpt lat="40.6293117" lon="14.5055487" />
      <trkpt lat="40.6293181" lon="14.5054382" />
      <trkpt lat="40.6292148" lon="14.5052155" />
      <trkpt lat="40.6291797" lon="14.5050309" />
      <trkpt lat="40.6291378" lon="14.5048344" />
      <trkpt lat="40.6290924" lon="14.5047312" />
      <trkpt lat="40.6290451" lon="14.5045873" />
      <trkpt lat="40.6290148" lon="14.5044850" />
      <trkpt lat="40.6290337" lon="14.5044261" />
      <trkpt lat="40.6290423" lon="14.5042713" />
      <trkpt lat="40.6289432" lon="14.5039929" />
      <trkpt lat="40.6289175" lon="14.5038543" />
      <trkpt lat="40.6288948" lon="14.5036014" />
      <trkpt lat="40.6288857" lon="14.5034348" />
      <trkpt lat="40.6287852" lon="14.5033404" />
    </trkseg>
  </trk>
</gpx>
