<?xml version="1.0" encoding="UTF-8"?>
<kml xmlns="http://www.opengis.net/kml/2.2">
  <Document>
    <name>The Lemon Path</name>
    <Style id="amalfi-route">
      <LineStyle>
        <color>ff0048e5</color>
        <width>5</width>
      </LineStyle>
    </Style>
    <Placemark>
      <name>The Lemon Path</name>
      <description>OpenStreetMap relation 10697741
License: ODbL-1.0
Distance: 2.99 km</description>
      <styleUrl>#amalfi-route</styleUrl>
      <LineString>
        <tessellate>1</tessellate>
        <coordinates>14.6400277,40.6507074,0 14.6399847,40.6507367,0 14.6399596,40.6507516,0 14.6397505,40.6508573,0 14.6393707,40.6510256,0 14.6391857,40.6510236,0 14.6390462,40.6510297,0 14.6388263,40.6510480,0 14.6387243,40.6510419,0 14.6386197,40.6510144,0 14.6384159,40.6510256,0 14.6382523,40.6510409,0 14.6380672,40.6510989,0 14.6378473,40.6511304,0 14.6377238,40.6511041,0 14.6376166,40.6510785,0 14.6373697,40.6509422,0 14.6372706,40.6509157,0 14.6371767,40.6508669,0 14.6370373,40.6508405,0 14.6369299,40.6508649,0 14.6367609,40.6509758,0 14.6366604,40.6509880,0 14.6363960,40.6510176,0 14.6361988,40.6510766,0 14.6352980,40.6511689,0 14.6332570,40.6505374,0 14.6332989,40.6504617,0 14.6333450,40.6504424,0 14.6333785,40.6503999,0 14.6334058,40.6503598,0 14.6334229,40.6502788,0 14.6334483,40.6501916,0 14.6334856,40.6500822,0 14.6335212,40.6500128,0 14.6334967,40.6499980,0 14.6332176,40.6498821,0 14.6330299,40.6498023,0 14.6329411,40.6497998,0 14.6329097,40.6498093,0 14.6326910,40.6498292,0 14.6325043,40.6498209,0 14.6324680,40.6497979,0 14.6340373,40.6522248,0 14.6339406,40.6521576,0 14.6337841,40.6520243,0 14.6337586,40.6519725,0 14.6336867,40.6519330,0 14.6336075,40.6517684,0 14.6335922,40.6516613,0 14.6335377,40.6516025,0 14.6333872,40.6515224,0 14.6331984,40.6514333,0 14.6329890,40.6513030,0 14.6328467,40.6511759,0 14.6328215,40.6510584,0 14.6328553,40.6509511,0 14.6328692,40.6508638,0 14.6329591,40.6507945,0 14.6330100,40.6507439,0 14.6330484,40.6507118,0 14.6332570,40.6505374,0 14.6352980,40.6511689,0 14.6352456,40.6511963,0 14.6351934,40.6512544,0 14.6350943,40.6514941,0 14.6350031,40.6516239,0 14.6349277,40.6517001,0 14.6347728,40.6518113,0 14.6344936,40.6520060,0 14.6342700,40.6521341,0 14.6341713,40.6521687,0 14.6340853,40.6522080,0 14.6340373,40.6522248,0 14.6405590,40.6506207,0 14.6404125,40.6507593,0 14.6403698,40.6508025,0 14.6399847,40.6507367,0 14.6322263,40.6496834,0 14.6324680,40.6497979,0</coordinates>
      </LineString>
    </Placemark>
  </Document>
</kml>
