{
  "type": "FeatureCollection",
  "name": "The Lemon Path",
  "features": [
    {
      "type": "Feature",
      "properties": {
        "slug": "the-lemon-path",
        "title": "The Lemon Path",
        "osmRelationId": 10697741,
        "source": "OpenStreetMap relation 10697741",
        "license": "ODbL-1.0",
        "fallbackUrl": "https://maps.app.goo.gl/J5qA9CQYrSiF1y5F7",
        "distanceKm": 2.99
      },
      "geometry": {
        "type": "LineString",
        "coordinates": [
          [
            14.6400277,
            40.6507074
          ],
          [
            14.6399847,
            40.6507367
          ],
          [
            14.6399596,
            40.6507516
          ],
          [
            14.6397505,
            40.6508573
          ],
          [
            14.6393707,
            40.6510256
          ],
          [
            14.6391857,
            40.6510236
          ],
          [
            14.6390462,
            40.6510297
          ],
          [
            14.6388263,
            40.651048
          ],
          [
            14.6387243,
            40.6510419
          ],
          [
            14.6386197,
            40.6510144
          ],
          [
            14.6384159,
            40.6510256
          ],
          [
            14.6382523,
            40.6510409
          ],
          [
            14.6380672,
            40.6510989
          ],
          [
            14.6378473,
            40.6511304
          ],
          [
            14.6377238,
            40.6511041
          ],
          [
            14.6376166,
            40.6510785
          ],
          [
            14.6373697,
            40.6509422
          ],
          [
            14.6372706,
            40.6509157
          ],
          [
            14.6371767,
            40.6508669
          ],
          [
            14.6370373,
            40.6508405
          ],
          [
            14.6369299,
            40.6508649
          ],
          [
            14.6367609,
            40.6509758
          ],
          [
            14.6366604,
            40.650988
          ],
          [
            14.636396,
            40.6510176
          ],
          [
            14.6361988,
            40.6510766
          ],
          [
            14.635298,
            40.6511689
          ],
          [
            14.633257,
            40.6505374
          ],
          [
            14.6332989,
            40.6504617
          ],
          [
            14.633345,
            40.6504424
          ],
          [
            14.6333785,
            40.6503999
          ],
          [
            14.6334058,
            40.6503598
          ],
          [
            14.6334229,
            40.6502788
          ],
          [
            14.6334483,
            40.6501916
          ],
          [
            14.6334856,
            40.6500822
          ],
          [
            14.6335212,
            40.6500128
          ],
          [
            14.6334967,
            40.649998
          ],
          [
            14.6332176,
            40.6498821
          ],
          [
            14.6330299,
            40.6498023
          ],
          [
            14.6329411,
            40.6497998
          ],
          [
            14.6329097,
            40.6498093
          ],
          [
            14.632691,
            40.6498292
          ],
          [
            14.6325043,
            40.6498209
          ],
          [
            14.632468,
            40.6497979
          ],
          [
            14.6340373,
            40.6522248
          ],
          [
            14.6339406,
            40.6521576
          ],
          [
            14.6337841,
            40.6520243
          ],
          [
            14.6337586,
            40.6519725
          ],
          [
            14.6336867,
            40.651933
          ],
          [
            14.6336075,
            40.6517684
          ],
          [
            14.6335922,
            40.6516613
          ],
          [
            14.6335377,
            40.6516025
          ],
          [
            14.6333872,
            40.6515224
          ],
          [
            14.6331984,
            40.6514333
          ],
          [
            14.632989,
            40.651303
          ],
          [
            14.6328467,
            40.6511759
          ],
          [
            14.6328215,
            40.6510584
          ],
          [
            14.6328553,
            40.6509511
          ],
          [
            14.6328692,
            40.6508638
          ],
          [
            14.6329591,
            40.6507945
          ],
          [
            14.63301,
            40.6507439
          ],
          [
            14.6330484,
            40.6507118
          ],
          [
            14.633257,
            40.6505374
          ],
          [
            14.635298,
            40.6511689
          ],
          [
            14.6352456,
            40.6511963
          ],
          [
            14.6351934,
            40.6512544
          ],
          [
            14.6350943,
            40.6514941
          ],
          [
            14.6350031,
            40.6516239
          ],
          [
            14.6349277,
            40.6517001
          ],
          [
            14.6347728,
            40.6518113
          ],
          [
            14.6344936,
            40.652006
          ],
          [
            14.63427,
            40.6521341
          ],
          [
            14.6341713,
            40.6521687
          ],
          [
            14.6340853,
            40.652208
          ],
          [
            14.6340373,
            40.6522248
          ],
          [
            14.640559,
            40.6506207
          ],
          [
            14.6404125,
            40.6507593
          ],
          [
            14.6403698,
            40.6508025
          ],
          [
            14.6399847,
            40.6507367
          ],
          [
            14.6322263,
            40.6496834
          ],
          [
            14.632468,
            40.6497979
          ]
        ]
      }
    }
  ]
}
