{
  "type": "FeatureCollection",
  "name": "Torre dello Ziro",
  "features": [
    {
      "type": "Feature",
      "properties": {
        "slug": "torre-dello-ziro",
        "title": "Torre dello Ziro",
        "osmRelationId": 4814078,
        "source": "OpenStreetMap relation 4814078",
        "license": "ODbL-1.0",
        "fallbackUrl": "https://maps.app.goo.gl/PwwKzYG8cirKwDSB9",
        "distanceKm": 1.19
      },
      "geometry": {
        "type": "LineString",
        "coordinates": [
          [
            14.6038208,
            40.6410911
          ],
          [
            14.6037923,
            40.6410263
          ],
          [
            14.6037232,
            40.6408827
          ],
          [
            14.6037224,
            40.6408618
          ],
          [
            14.6037219,
            40.6408293
          ],
          [
            14.6037084,
            40.640725
          ],
          [
            14.6037022,
            40.6406602
          ],
          [
            14.6037082,
            40.640611
          ],
          [
            14.6037232,
            40.6405773
          ],
          [
            14.60376,
            40.6405587
          ],
          [
            14.6038152,
            40.6405373
          ],
          [
            14.603879,
            40.640517
          ],
          [
            14.6039309,
            40.6405038
          ],
          [
            14.6040497,
            40.6404563
          ],
          [
            14.6040532,
            40.6404375
          ],
          [
            14.6039598,
            40.6404701
          ],
          [
            14.6039518,
            40.6404563
          ],
          [
            14.6040425,
            40.6404164
          ],
          [
            14.6040366,
            40.6404013
          ],
          [
            14.6039455,
            40.6404352
          ],
          [
            14.6039399,
            40.6404197
          ],
          [
            14.6040223,
            40.6403866
          ],
          [
            14.6040155,
            40.6403722
          ],
          [
            14.6039539,
            40.6403822
          ],
          [
            14.6039703,
            40.6403001
          ],
          [
            14.6040459,
            40.6402699
          ],
          [
            14.6040735,
            40.6402207
          ],
          [
            14.6040878,
            40.6401517
          ],
          [
            14.6041031,
            40.6400998
          ],
          [
            14.6041075,
            40.6400591
          ],
          [
            14.6040981,
            40.6400334
          ],
          [
            14.6040802,
            40.6400097
          ],
          [
            14.6039773,
            40.6399328
          ],
          [
            14.6039228,
            40.6398821
          ],
          [
            14.6038896,
            40.6398542
          ],
          [
            14.6038654,
            40.6398152
          ],
          [
            14.6038534,
            40.6397665
          ],
          [
            14.6038551,
            40.6397103
          ],
          [
            14.6038735,
            40.6396561
          ],
          [
            14.6039114,
            40.6395756
          ],
          [
            14.6039759,
            40.6394833
          ],
          [
            14.6038434,
            40.639488
          ],
          [
            14.6037164,
            40.6394696
          ],
          [
            14.6034862,
            40.6393583
          ],
          [
            14.6034354,
            40.6393153
          ],
          [
            14.6034377,
            40.639281
          ],
          [
            14.6034596,
            40.6392759
          ],
          [
            14.6035553,
            40.6392714
          ],
          [
            14.6035697,
            40.6392234
          ],
          [
            14.603578,
            40.6391717
          ],
          [
            14.6036168,
            40.6389862
          ],
          [
            14.6036486,
            40.6389156
          ],
          [
            14.6037132,
            40.6389045
          ],
          [
            14.6037662,
            40.6388781
          ],
          [
            14.6037764,
            40.6388235
          ],
          [
            14.6038391,
            40.6387808
          ],
          [
            14.6039065,
            40.638755
          ],
          [
            14.604239,
            40.6387708
          ],
          [
            14.6043397,
            40.6387812
          ],
          [
            14.6043961,
            40.6387616
          ],
          [
            14.6044231,
            40.6387236
          ],
          [
            14.6044483,
            40.6385879
          ],
          [
            14.604472,
            40.6385515
          ],
          [
            14.6045264,
            40.6385407
          ],
          [
            14.6045731,
            40.6385592
          ],
          [
            14.6046033,
            40.6386035
          ],
          [
            14.6046558,
            40.6386648
          ],
          [
            14.6047477,
            40.6387598
          ],
          [
            14.604758,
            40.6386049
          ],
          [
            14.6047602,
            40.63848
          ],
          [
            14.6047519,
            40.6384118
          ],
          [
            14.6047387,
            40.6383331
          ],
          [
            14.6046713,
            40.638238
          ],
          [
            14.6046531,
            40.6381998
          ],
          [
            14.6046429,
            40.6381545
          ],
          [
            14.6046383,
            40.6380706
          ],
          [
            14.6046974,
            40.6379268
          ],
          [
            14.6047115,
            40.6377819
          ],
          [
            14.6047384,
            40.6377452
          ],
          [
            14.6047521,
            40.6377327
          ],
          [
            14.6047581,
            40.6377876
          ],
          [
            14.6047731,
            40.6378332
          ],
          [
            14.6047951,
            40.6378928
          ],
          [
            14.6048458,
            40.6380529
          ],
          [
            14.6048755,
            40.6381465
          ],
          [
            14.6048967,
            40.6382161
          ],
          [
            14.6049338,
            40.6382937
          ],
          [
            14.6049895,
            40.6383913
          ],
          [
            14.605029,
            40.6383656
          ],
          [
            14.6050301,
            40.6382676
          ],
          [
            14.6050536,
            40.6381794
          ],
          [
            14.6051013,
            40.6381252
          ],
          [
            14.6051275,
            40.63809
          ],
          [
            14.6051718,
            40.6380567
          ],
          [
            14.6051975,
            40.6380554
          ],
          [
            14.6051976,
            40.638072
          ],
          [
            14.6051775,
            40.6381128
          ],
          [
            14.6051868,
            40.6381275
          ],
          [
            14.605202,
            40.6381363
          ],
          [
            14.605223,
            40.6381185
          ],
          [
            14.6052772,
            40.6380555
          ],
          [
            14.6053161,
            40.6380421
          ],
          [
            14.6053568,
            40.6380478
          ],
          [
            14.6053471,
            40.6381185
          ],
          [
            14.6053342,
            40.6381551
          ],
          [
            14.6053203,
            40.6381976
          ],
          [
            14.6053057,
            40.6382334
          ],
          [
            14.605302,
            40.6382704
          ],
          [
            14.6052913,
            40.63831
          ],
          [
            14.6053042,
            40.6383435
          ],
          [
            14.6053221,
            40.6383871
          ],
          [
            14.6053457,
            40.6383655
          ],
          [
            14.6053414,
            40.6383058
          ],
          [
            14.6053489,
            40.6382758
          ],
          [
            14.6053835,
            40.6382707
          ],
          [
            14.6054026,
            40.6383892
          ],
          [
            14.6054526,
            40.638368
          ],
          [
            14.6054735,
            40.6383069
          ],
          [
            14.6054802,
            40.6382516
          ],
          [
            14.6054956,
            40.6382084
          ],
          [
            14.6055072,
            40.6381815
          ],
          [
            14.6055308,
            40.6381349
          ],
          [
            14.6055488,
            40.6380797
          ],
          [
            14.605542,
            40.6380253
          ],
          [
            14.6054969,
            40.637957
          ],
          [
            14.6054878,
            40.637919
          ],
          [
            14.6054949,
            40.6378588
          ],
          [
            14.6054883,
            40.6378223
          ],
          [
            14.6054442,
            40.6377308
          ],
          [
            14.6054259,
            40.6376726
          ],
          [
            14.6053985,
            40.6375997
          ],
          [
            14.6053717,
            40.637529
          ],
          [
            14.6053551,
            40.6374963
          ],
          [
            14.6053312,
            40.6374413
          ],
          [
            14.6053197,
            40.6373967
          ],
          [
            14.6053179,
            40.637351
          ],
          [
            14.6053195,
            40.6373015
          ],
          [
            14.6053373,
            40.637212
          ],
          [
            14.6053532,
            40.6371348
          ],
          [
            14.6053743,
            40.6370433
          ],
          [
            14.6053782,
            40.6369596
          ],
          [
            14.6053849,
            40.6368912
          ],
          [
            14.6054481,
            40.6367559
          ],
          [
            14.6054987,
            40.6366756
          ],
          [
            14.6055238,
            40.6366375
          ],
          [
            14.6055612,
            40.636591
          ],
          [
            14.6056219,
            40.6365258
          ],
          [
            14.60567,
            40.6364736
          ],
          [
            14.6056866,
            40.6364415
          ],
          [
            14.6056891,
            40.6364102
          ],
          [
            14.6056893,
            40.6363922
          ],
          [
            14.6056842,
            40.636358
          ],
          [
            14.6056654,
            40.6362965
          ],
          [
            14.6056558,
            40.6362319
          ],
          [
            14.605648,
            40.6361983
          ],
          [
            14.6056455,
            40.6361727
          ],
          [
            14.6056482,
            40.6361467
          ],
          [
            14.6056528,
            40.6361193
          ],
          [
            14.6056579,
            40.6360547
          ],
          [
            14.6056658,
            40.6360018
          ],
          [
            14.6056672,
            40.6359637
          ],
          [
            14.6056933,
            40.635966
          ],
          [
            14.6056672,
            40.6359637
          ],
          [
            14.6056379,
            40.6359531
          ],
          [
            14.6056178,
            40.6359312
          ],
          [
            14.6056148,
            40.6359185
          ],
          [
            14.605612,
            40.6359018
          ],
          [
            14.6056206,
            40.6358806
          ],
          [
            14.6056319,
            40.6358664
          ],
          [
            14.6056477,
            40.6358574
          ],
          [
            14.6056715,
            40.6358508
          ],
          [
            14.6057074,
            40.6358513
          ],
          [
            14.6057325,
            40.6358583
          ],
          [
            14.6057489,
            40.6358709
          ],
          [
            14.6057631,
            40.6358878
          ],
          [
            14.6057678,
            40.6359082
          ],
          [
            14.605818,
            40.6359071
          ],
          [
            14.6058473,
            40.6359094
          ],
          [
            14.6058985,
            40.635917
          ],
          [
            14.605946,
            40.6359242
          ],
          [
            14.605982,
            40.6359256
          ],
          [
            14.6060348,
            40.6359248
          ],
          [
            14.6060652,
            40.6359238
          ],
          [
            14.6061015,
            40.6359122
          ],
          [
            14.6061436,
            40.6358943
          ],
          [
            14.6061703,
            40.6358784
          ],
          [
            14.6062033,
            40.635846
          ],
          [
            14.6062318,
            40.6357976
          ]
        ]
      }
    }
  ]
}
