<?xml version="1.0" encoding="UTF-8"?>
<gpx version="1.1" creator="Amalfi.Day" xmlns="http://www.topografix.com/GPX/1/1">
  <metadata>
    <name>Torre dello Ziro</name>
    <desc>OpenStreetMap relation 4814078</desc>
  </metadata>
  <trk>
    <name>Torre dello Ziro</name>
    <trkseg>
      <trkpt lat="40.6410911" lon="14.6038208" />
      <trkpt lat="40.6410263" lon="14.6037923" />
      <trkpt lat="40.6408827" lon="14.6037232" />
      <trkpt lat="40.6408618" lon="14.6037224" />
      <trkpt lat="40.6408293" lon="14.6037219" />
      <trkpt lat="40.6407250" lon="14.6037084" />
      <trkpt lat="40.6406602" lon="14.6037022" />
      <trkpt lat="40.6406110" lon="14.6037082" />
      <trkpt lat="40.6405773" lon="14.6037232" />
      <trkpt lat="40.6405587" lon="14.6037600" />
      <trkpt lat="40.6405373" lon="14.6038152" />
      <trkpt lat="40.6405170" lon="14.6038790" />
      <trkpt lat="40.6405038" lon="14.6039309" />
      <trkpt lat="40.6404563" lon="14.6040497" />
      <trkpt lat="40.6404375" lon="14.6040532" />
      <trkpt lat="40.6404701" lon="14.6039598" />
      <trkpt lat="40.6404563" lon="14.6039518" />
      <trkpt lat="40.6404164" lon="14.6040425" />
      <trkpt lat="40.6404013" lon="14.6040366" />
      <trkpt lat="40.6404352" lon="14.6039455" />
      <trkpt lat="40.6404197" lon="14.6039399" />
      <trkpt lat="40.6403866" lon="14.6040223" />
      <trkpt lat="40.6403722" lon="14.6040155" />
      <trkpt lat="40.6403822" lon="14.6039539" />
      <trkpt lat="40.6403001" lon="14.6039703" />
      <trkpt lat="40.6402699" lon="14.6040459" />
      <trkpt lat="40.6402207" lon="14.6040735" />
      <trkpt lat="40.6401517" lon="14.6040878" />
      <trkpt lat="40.6400998" lon="14.6041031" />
      <trkpt lat="40.6400591" lon="14.6041075" />
      <trkpt lat="40.6400334" lon="14.6040981" />
      <trkpt lat="40.6400097" lon="14.6040802" />
      <trkpt lat="40.6399328" lon="14.6039773" />
      <trkpt lat="40.6398821" lon="14.6039228" />
      <trkpt lat="40.6398542" lon="14.6038896" />
      <trkpt lat="40.6398152" lon="14.6038654" />
      <trkpt lat="40.6397665" lon="14.6038534" />
      <trkpt lat="40.6397103" lon="14.6038551" />
      <trkpt lat="40.6396561" lon="14.6038735" />
      <trkpt lat="40.6395756" lon="14.6039114" />
      <trkpt lat="40.6394833" lon="14.6039759" />
      <trkpt lat="40.6394880" lon="14.6038434" />
      <trkpt lat="40.6394696" lon="14.6037164" />
      <trkpt lat="40.6393583" lon="14.6034862" />
      <trkpt lat="40.6393153" lon="14.6034354" />
      <trkpt lat="40.6392810" lon="14.6034377" />
      <trkpt lat="40.6392759" lon="14.6034596" />
      <trkpt lat="40.6392714" lon="14.6035553" />
      <trkpt lat="40.6392234" lon="14.6035697" />
      <trkpt lat="40.6391717" lon="14.6035780" />
      <trkpt lat="40.6389862" lon="14.6036168" />
      <trkpt lat="40.6389156" lon="14.6036486" />
      <trkpt lat="40.6389045" lon="14.6037132" />
      <trkpt lat="40.6388781" lon="14.6037662" />
      <trkpt lat="40.6388235" lon="14.6037764" />
      <trkpt lat="40.6387808" lon="14.6038391" />
      <trkpt lat="40.6387550" lon="14.6039065" />
      <trkpt lat="40.6387708" lon="14.6042390" />
      <trkpt lat="40.6387812" lon="14.6043397" />
      <trkpt lat="40.6387616" lon="14.6043961" />
      <trkpt lat="40.6387236" lon="14.6044231" />
      <trkpt lat="40.6385879" lon="14.6044483" />
      <trkpt lat="40.6385515" lon="14.6044720" />
      <trkpt lat="40.6385407" lon="14.6045264" />
      <trkpt lat="40.6385592" lon="14.6045731" />
      <trkpt lat="40.6386035" lon="14.6046033" />
      <trkpt lat="40.6386648" lon="14.6046558" />
      <trkpt lat="40.6387598" lon="14.6047477" />
      <trkpt lat="40.6386049" lon="14.6047580" />
      <trkpt lat="40.6384800" lon="14.6047602" />
      <trkpt lat="40.6384118" lon="14.6047519" />
      <trkpt lat="40.6383331" lon="14.6047387" />
      <trkpt lat="40.6382380" lon="14.6046713" />
      <trkpt lat="40.6381998" lon="14.6046531" />
      <trkpt lat="40.6381545" lon="14.6046429" />
      <trkpt lat="40.6380706" lon="14.6046383" />
      <trkpt lat="40.6379268" lon="14.6046974" />
      <trkpt lat="40.6377819" lon="14.6047115" />
      <trkpt lat="40.6377452" lon="14.6047384" />
      <trkpt lat="40.6377327" lon="14.6047521" />
      <trkpt lat="40.6377876" lon="14.6047581" />
      <trkpt lat="40.6378332" lon="14.6047731" />
      <trkpt lat="40.6378928" lon="14.6047951" />
      <trkpt lat="40.6380529" lon="14.6048458" />
      <trkpt lat="40.6381465" lon="14.6048755" />
      <trkpt lat="40.6382161" lon="14.6048967" />
      <trkpt lat="40.6382937" lon="14.6049338" />
      <trkpt lat="40.6383913" lon="14.6049895" />
      <trkpt lat="40.6383656" lon="14.6050290" />
      <trkpt lat="40.6382676" lon="14.6050301" />
      <trkpt lat="40.6381794" lon="14.6050536" />
      <trkpt lat="40.6381252" lon="14.6051013" />
      <trkpt lat="40.6380900" lon="14.6051275" />
      <trkpt lat="40.6380567" lon="14.6051718" />
      <trkpt lat="40.6380554" lon="14.6051975" />
      <trkpt lat="40.6380720" lon="14.6051976" />
      <trkpt lat="40.6381128" lon="14.6051775" />
      <trkpt lat="40.6381275" lon="14.6051868" />
      <trkpt lat="40.6381363" lon="14.6052020" />
      <trkpt lat="40.6381185" lon="14.6052230" />
      <trkpt lat="40.6380555" lon="14.6052772" />
      <trkpt lat="40.6380421" lon="14.6053161" />
      <trkpt lat="40.6380478" lon="14.6053568" />
      <trkpt lat="40.6381185" lon="14.6053471" />
      <trkpt lat="40.6381551" lon="14.6053342" />
      <trkpt lat="40.6381976" lon="14.6053203" />
      <trkpt lat="40.6382334" lon="14.6053057" />
      <trkpt lat="40.6382704" lon="14.6053020" />
      <trkpt lat="40.6383100" lon="14.6052913" />
      <trkpt lat="40.6383435" lon="14.6053042" />
      <trkpt lat="40.6383871" lon="14.6053221" />
      <trkpt lat="40.6383655" lon="14.6053457" />
      <trkpt lat="40.6383058" lon="14.6053414" />
      <trkpt lat="40.6382758" lon="14.6053489" />
      <trkpt lat="40.6382707" lon="14.6053835" />
      <trkpt lat="40.6383892" lon="14.6054026" />
      <trkpt lat="40.6383680" lon="14.6054526" />
      <trkpt lat="40.6383069" lon="14.6054735" />
      <trkpt lat="40.6382516" lon="14.6054802" />
      <trkpt lat="40.6382084" lon="14.6054956" />
      <trkpt lat="40.6381815" lon="14.6055072" />
      <trkpt lat="40.6381349" lon="14.6055308" />
      <trkpt lat="40.6380797" lon="14.6055488" />
      <trkpt lat="40.6380253" lon="14.6055420" />
      <trkpt lat="40.6379570" lon="14.6054969" />
      <trkpt lat="40.6379190" lon="14.6054878" />
      <trkpt lat="40.6378588" lon="14.6054949" />
      <trkpt lat="40.6378223" lon="14.6054883" />
      <trkpt lat="40.6377308" lon="14.6054442" />
      <trkpt lat="40.6376726" lon="14.6054259" />
      <trkpt lat="40.6375997" lon="14.6053985" />
      <trkpt lat="40.6375290" lon="14.6053717" />
      <trkpt lat="40.6374963" lon="14.6053551" />
      <trkpt lat="40.6374413" lon="14.6053312" />
      <trkpt lat="40.6373967" lon="14.6053197" />
      <trkpt lat="40.6373510" lon="14.6053179" />
      <trkpt lat="40.6373015" lon="14.6053195" />
      <trkpt lat="40.6372120" lon="14.6053373" />
      <trkpt lat="40.6371348" lon="14.6053532" />
      <trkpt lat="40.6370433" lon="14.6053743" />
      <trkpt lat="40.6369596" lon="14.6053782" />
      <trkpt lat="40.6368912" lon="14.6053849" />
      <trkpt lat="40.6367559" lon="14.6054481" />
      <trkpt lat="40.6366756" lon="14.6054987" />
      <trkpt lat="40.6366375" lon="14.6055238" />
      <trkpt lat="40.6365910" lon="14.6055612" />
      <trkpt lat="40.6365258" lon="14.6056219" />
      <trkpt lat="40.6364736" lon="14.6056700" />
      <trkpt lat="40.6364415" lon="14.6056866" />
      <trkpt lat="40.6364102" lon="14.6056891" />
      <trkpt lat="40.6363922" lon="14.6056893" />
      <trkpt lat="40.6363580" lon="14.6056842" />
      <trkpt lat="40.6362965" lon="14.6056654" />
      <trkpt lat="40.6362319" lon="14.6056558" />
      <trkpt lat="40.6361983" lon="14.6056480" />
      <trkpt lat="40.6361727" lon="14.6056455" />
      <trkpt lat="40.6361467" lon="14.6056482" />
      <trkpt lat="40.6361193" lon="14.6056528" />
      <trkpt lat="40.6360547" lon="14.6056579" />
      <trkpt lat="40.6360018" lon="14.6056658" />
      <trkpt lat="40.6359637" lon="14.6056672" />
      <trkpt lat="40.6359660" lon="14.6056933" />
      <trkpt lat="40.6359637" lon="14.6056672" />
      <trkpt lat="40.6359531" lon="14.6056379" />
      <trkpt lat="40.6359312" lon="14.6056178" />
      <trkpt lat="40.6359185" lon="14.6056148" />
      <trkpt lat="40.6359018" lon="14.6056120" />
      <trkpt lat="40.6358806" lon="14.6056206" />
      <trkpt lat="40.6358664" lon="14.6056319" />
      <trkpt lat="40.6358574" lon="14.6056477" />
      <trkpt lat="40.6358508" lon="14.6056715" />
      <trkpt lat="40.6358513" lon="14.6057074" />
      <trkpt lat="40.6358583" lon="14.6057325" />
      <trkpt lat="40.6358709" lon="14.6057489" />
      <trkpt lat="40.6358878" lon="14.6057631" />
      <trkpt lat="40.6359082" lon="14.6057678" />
      <trkpt lat="40.6359071" lon="14.6058180" />
      <trkpt lat="40.6359094" lon="14.6058473" />
      <trkpt lat="40.6359170" lon="14.6058985" />
      <trkpt lat="40.6359242" lon="14.6059460" />
      <trkpt lat="40.6359256" lon="14.6059820" />
      <trkpt lat="40.6359248" lon="14.6060348" />
      <trkpt lat="40.6359238" lon="14.6060652" />
      <trkpt lat="40.6359122" lon="14.6061015" />
      <trkpt lat="40.6358943" lon="14.6061436" />
      <trkpt lat="40.6358784" lon="14.6061703" />
      <trkpt lat="40.6358460" lon="14.6062033" />
      <trkpt lat="40.6357976" lon="14.6062318" />
    </trkseg>
  </trk>
</gpx>
