<?xml version="1.0" encoding="UTF-8"?>
<kml xmlns="http://www.opengis.net/kml/2.2">
  <Document>
    <name>Torre dello Ziro</name>
    <Style id="amalfi-route">
      <LineStyle>
        <color>ff0048e5</color>
        <width>5</width>
      </LineStyle>
    </Style>
    <Placemark>
      <name>Torre dello Ziro</name>
      <description>OpenStreetMap relation 4814078
License: ODbL-1.0
Distance: 1.19 km</description>
      <styleUrl>#amalfi-route</styleUrl>
      <LineString>
        <tessellate>1</tessellate>
        <coordinates>14.6038208,40.6410911,0 14.6037923,40.6410263,0 14.6037232,40.6408827,0 14.6037224,40.6408618,0 14.6037219,40.6408293,0 14.6037084,40.6407250,0 14.6037022,40.6406602,0 14.6037082,40.6406110,0 14.6037232,40.6405773,0 14.6037600,40.6405587,0 14.6038152,40.6405373,0 14.6038790,40.6405170,0 14.6039309,40.6405038,0 14.6040497,40.6404563,0 14.6040532,40.6404375,0 14.6039598,40.6404701,0 14.6039518,40.6404563,0 14.6040425,40.6404164,0 14.6040366,40.6404013,0 14.6039455,40.6404352,0 14.6039399,40.6404197,0 14.6040223,40.6403866,0 14.6040155,40.6403722,0 14.6039539,40.6403822,0 14.6039703,40.6403001,0 14.6040459,40.6402699,0 14.6040735,40.6402207,0 14.6040878,40.6401517,0 14.6041031,40.6400998,0 14.6041075,40.6400591,0 14.6040981,40.6400334,0 14.6040802,40.6400097,0 14.6039773,40.6399328,0 14.6039228,40.6398821,0 14.6038896,40.6398542,0 14.6038654,40.6398152,0 14.6038534,40.6397665,0 14.6038551,40.6397103,0 14.6038735,40.6396561,0 14.6039114,40.6395756,0 14.6039759,40.6394833,0 14.6038434,40.6394880,0 14.6037164,40.6394696,0 14.6034862,40.6393583,0 14.6034354,40.6393153,0 14.6034377,40.6392810,0 14.6034596,40.6392759,0 14.6035553,40.6392714,0 14.6035697,40.6392234,0 14.6035780,40.6391717,0 14.6036168,40.6389862,0 14.6036486,40.6389156,0 14.6037132,40.6389045,0 14.6037662,40.6388781,0 14.6037764,40.6388235,0 14.6038391,40.6387808,0 14.6039065,40.6387550,0 14.6042390,40.6387708,0 14.6043397,40.6387812,0 14.6043961,40.6387616,0 14.6044231,40.6387236,0 14.6044483,40.6385879,0 14.6044720,40.6385515,0 14.6045264,40.6385407,0 14.6045731,40.6385592,0 14.6046033,40.6386035,0 14.6046558,40.6386648,0 14.6047477,40.6387598,0 14.6047580,40.6386049,0 14.6047602,40.6384800,0 14.6047519,40.6384118,0 14.6047387,40.6383331,0 14.6046713,40.6382380,0 14.6046531,40.6381998,0 14.6046429,40.6381545,0 14.6046383,40.6380706,0 14.6046974,40.6379268,0 14.6047115,40.6377819,0 14.6047384,40.6377452,0 14.6047521,40.6377327,0 14.6047581,40.6377876,0 14.6047731,40.6378332,0 14.6047951,40.6378928,0 14.6048458,40.6380529,0 14.6048755,40.6381465,0 14.6048967,40.6382161,0 14.6049338,40.6382937,0 14.6049895,40.6383913,0 14.6050290,40.6383656,0 14.6050301,40.6382676,0 14.6050536,40.6381794,0 14.6051013,40.6381252,0 14.6051275,40.6380900,0 14.6051718,40.6380567,0 14.6051975,40.6380554,0 14.6051976,40.6380720,0 14.6051775,40.6381128,0 14.6051868,40.6381275,0 14.6052020,40.6381363,0 14.6052230,40.6381185,0 14.6052772,40.6380555,0 14.6053161,40.6380421,0 14.6053568,40.6380478,0 14.6053471,40.6381185,0 14.6053342,40.6381551,0 14.6053203,40.6381976,0 14.6053057,40.6382334,0 14.6053020,40.6382704,0 14.6052913,40.6383100,0 14.6053042,40.6383435,0 14.6053221,40.6383871,0 14.6053457,40.6383655,0 14.6053414,40.6383058,0 14.6053489,40.6382758,0 14.6053835,40.6382707,0 14.6054026,40.6383892,0 14.6054526,40.6383680,0 14.6054735,40.6383069,0 14.6054802,40.6382516,0 14.6054956,40.6382084,0 14.6055072,40.6381815,0 14.6055308,40.6381349,0 14.6055488,40.6380797,0 14.6055420,40.6380253,0 14.6054969,40.6379570,0 14.6054878,40.6379190,0 14.6054949,40.6378588,0 14.6054883,40.6378223,0 14.6054442,40.6377308,0 14.6054259,40.6376726,0 14.6053985,40.6375997,0 14.6053717,40.6375290,0 14.6053551,40.6374963,0 14.6053312,40.6374413,0 14.6053197,40.6373967,0 14.6053179,40.6373510,0 14.6053195,40.6373015,0 14.6053373,40.6372120,0 14.6053532,40.6371348,0 14.6053743,40.6370433,0 14.6053782,40.6369596,0 14.6053849,40.6368912,0 14.6054481,40.6367559,0 14.6054987,40.6366756,0 14.6055238,40.6366375,0 14.6055612,40.6365910,0 14.6056219,40.6365258,0 14.6056700,40.6364736,0 14.6056866,40.6364415,0 14.6056891,40.6364102,0 14.6056893,40.6363922,0 14.6056842,40.6363580,0 14.6056654,40.6362965,0 14.6056558,40.6362319,0 14.6056480,40.6361983,0 14.6056455,40.6361727,0 14.6056482,40.6361467,0 14.6056528,40.6361193,0 14.6056579,40.6360547,0 14.6056658,40.6360018,0 14.6056672,40.6359637,0 14.6056933,40.6359660,0 14.6056672,40.6359637,0 14.6056379,40.6359531,0 14.6056178,40.6359312,0 14.6056148,40.6359185,0 14.6056120,40.6359018,0 14.6056206,40.6358806,0 14.6056319,40.6358664,0 14.6056477,40.6358574,0 14.6056715,40.6358508,0 14.6057074,40.6358513,0 14.6057325,40.6358583,0 14.6057489,40.6358709,0 14.6057631,40.6358878,0 14.6057678,40.6359082,0 14.6058180,40.6359071,0 14.6058473,40.6359094,0 14.6058985,40.6359170,0 14.6059460,40.6359242,0 14.6059820,40.6359256,0 14.6060348,40.6359248,0 14.6060652,40.6359238,0 14.6061015,40.6359122,0 14.6061436,40.6358943,0 14.6061703,40.6358784,0 14.6062033,40.6358460,0 14.6062318,40.6357976,0</coordinates>
      </LineString>
    </Placemark>
  </Document>
</kml>
