<?xml version="1.0" encoding="UTF-8"?>
<kml xmlns="http://www.opengis.net/kml/2.2">
  <Document>
    <name>Valle delle Ferriere</name>
    <Style id="amalfi-route">
      <LineStyle>
        <color>ff0048e5</color>
        <width>5</width>
      </LineStyle>
    </Style>
    <Placemark>
      <name>Valle delle Ferriere</name>
      <description>OpenStreetMap relation 4808044
License: ODbL-1.0
Distance: 3.52 km</description>
      <styleUrl>#amalfi-route</styleUrl>
      <LineString>
        <tessellate>1</tessellate>
        <coordinates>14.6027270,40.6338310,0 14.6027226,40.6338731,0 14.6027196,40.6338945,0 14.6027039,40.6341055,0 14.6026887,40.6341358,0 14.6026467,40.6342035,0 14.6025974,40.6342758,0 14.6025640,40.6343261,0 14.6025387,40.6343560,0 14.6025162,40.6343823,0 14.6024681,40.6344314,0 14.6023286,40.6345882,0 14.6022291,40.6346766,0 14.6022050,40.6347015,0 14.6021750,40.6347314,0 14.6020774,40.6348361,0 14.6020495,40.6348816,0 14.6020178,40.6349818,0 14.6020112,40.6350526,0 14.6020052,40.6351158,0 14.6020041,40.6351334,0 14.6020025,40.6351612,0 14.6019993,40.6352749,0 14.6019972,40.6353434,0 14.6019939,40.6354649,0 14.6019919,40.6355518,0 14.6019924,40.6355719,0 14.6019924,40.6355739,0 14.6019940,40.6356446,0 14.6019944,40.6356532,0 14.6019965,40.6357017,0 14.6020077,40.6358038,0 14.6020146,40.6358659,0 14.6020192,40.6359073,0 14.6020306,40.6360112,0 14.6020358,40.6360880,0 14.6020566,40.6363932,0 14.6020594,40.6365227,0 14.6020599,40.6365290,0 14.6020605,40.6365409,0 14.6020595,40.6365691,0 14.6020594,40.6365723,0 14.6020547,40.6366404,0 14.6020530,40.6366652,0 14.6020347,40.6367689,0 14.6020298,40.6368078,0 14.6020344,40.6368515,0 14.6020369,40.6368762,0 14.6020420,40.6369098,0 14.6020499,40.6369609,0 14.6020552,40.6370073,0 14.6020626,40.6371152,0 14.6020570,40.6372273,0 14.6020403,40.6373104,0 14.6020308,40.6373344,0 14.6019939,40.6373757,0 14.6019209,40.6374373,0 14.6019167,40.6374408,0 14.6017189,40.6375626,0 14.6015844,40.6376759,0 14.6015173,40.6377529,0 14.6014698,40.6379262,0 14.6014497,40.6379848,0 14.6014244,40.6380379,0 14.6013992,40.6380823,0 14.6013446,40.6381517,0 14.6013220,40.6381839,0 14.6012624,40.6382705,0 14.6012039,40.6383633,0 14.6011759,40.6383976,0 14.6011457,40.6384265,0 14.6011262,40.6384430,0 14.6010775,40.6384866,0 14.6010302,40.6385359,0 14.6010033,40.6385703,0 14.6009808,40.6386086,0 14.6009694,40.6386464,0 14.6009594,40.6386886,0 14.6009236,40.6387826,0 14.6008718,40.6388673,0 14.6008487,40.6389059,0 14.6008126,40.6389608,0 14.6007734,40.6390168,0 14.6006810,40.6391663,0 14.6006438,40.6392215,0 14.6006042,40.6392883,0 14.6005483,40.6393651,0 14.6005031,40.6394169,0 14.6004450,40.6394786,0 14.6003612,40.6395582,0 14.6003045,40.6395988,0 14.6002492,40.6396305,0 14.6001906,40.6396606,0 14.6001272,40.6396873,0 14.6000387,40.6397189,0 14.5999085,40.6397588,0 14.5998005,40.6397867,0 14.5997179,40.6397949,0 14.5996641,40.6397997,0 14.5996167,40.6398032,0 14.5995733,40.6398074,0 14.5995224,40.6398185,0 14.5996058,40.6398954,0 14.5996751,40.6399459,0 14.5996987,40.6399546,0 14.5997149,40.6399566,0 14.5997545,40.6399572,0 14.5998501,40.6399576,0 14.5999335,40.6399594,0 14.5999569,40.6399604,0 14.5999784,40.6399658,0 14.5998872,40.6400118,0 14.5998587,40.6400295,0 14.5998442,40.6400508,0 14.5998120,40.6401272,0 14.5997873,40.6402037,0 14.5997221,40.6403030,0 14.5996233,40.6404010,0 14.5995106,40.6404840,0 14.5994234,40.6405778,0 14.5994068,40.6405988,0 14.5993487,40.6407023,0 14.5992922,40.6407619,0 14.5992477,40.6408316,0 14.5992238,40.6408701,0 14.5991835,40.6409082,0 14.5990625,40.6409870,0 14.5990356,40.6410134,0 14.5989652,40.6410839,0 14.5988715,40.6412312,0 14.5988423,40.6412627,0 14.5987456,40.6412999,0 14.5987001,40.6413337,0 14.5986523,40.6413778,0 14.5986384,40.6413996,0 14.5985886,40.6414609,0 14.5985565,40.6414691,0 14.5984797,40.6414923,0 14.5984102,40.6415004,0 14.5983268,40.6414846,0 14.5982245,40.6414645,0 14.5981677,40.6414710,0 14.5980034,40.6415119,0 14.5979739,40.6415307,0 14.5979100,40.6415482,0 14.5978651,40.6415701,0 14.5977728,40.6416934,0 14.5976851,40.6418129,0 14.5975128,40.6418958,0 14.5974802,40.6419065,0 14.5973082,40.6420406,0 14.5972533,40.6420869,0 14.5971973,40.6421217,0 14.5970623,40.6421788,0 14.5968365,40.6422483,0 14.5967816,40.6422646,0 14.5965507,40.6422910,0 14.5964762,40.6423339,0 14.5964164,40.6423552,0 14.5963762,40.6423671,0 14.5963542,40.6423832,0 14.5963020,40.6424414,0 14.5962235,40.6425488,0 14.5961758,40.6425935,0 14.5961464,40.6425996,0 14.5961279,40.6425939,0 14.5960339,40.6425559,0 14.5958479,40.6424748,0 14.5957924,40.6424640,0 14.5957327,40.6424561,0 14.5956646,40.6424768,0 14.5956044,40.6424832,0 14.5954623,40.6425149,0 14.5954029,40.6425314,0 14.5952076,40.6425380,0 14.5951432,40.6425429,0 14.5950976,40.6425356,0 14.5950221,40.6425298,0 14.5948812,40.6425399,0 14.5947729,40.6425635,0 14.5947196,40.6425730,0 14.5944822,40.6425969,0 14.5944032,40.6426063,0 14.5942622,40.6426882,0 14.5941548,40.6427214,0 14.5940568,40.6427430,0 14.5938902,40.6427913,0 14.5938070,40.6428113,0 14.5937122,40.6428385,0 14.5936529,40.6428493,0 14.5935984,40.6428504,0 14.5935426,40.6428255,0 14.5935107,40.6428309,0 14.5934332,40.6427989,0 14.5933793,40.6427761,0 14.5933380,40.6427669,0 14.5933263,40.6427660,0 14.5932426,40.6427564,0 14.5931214,40.6427893,0 14.5930694,40.6428477,0 14.5930248,40.6428972,0 14.5929622,40.6429400,0 14.5928355,40.6430173,0 14.5926506,40.6430696,0 14.5924069,40.6431030,0 14.5922999,40.6431233,0 14.5920609,40.6431747,0 14.5919657,40.6432066,0 14.5918792,40.6432539,0 14.5917653,40.6433210,0 14.5917334,40.6433498,0 14.5916937,40.6434382,0 14.5916502,40.6435572,0 14.5915909,40.6436788,0 14.5915937,40.6436921,0 14.5915985,40.6437154,0 14.5915697,40.6437562,0 14.5915268,40.6438021,0 14.5914570,40.6438549,0 14.5913982,40.6439134,0 14.5912977,40.6439870,0 14.5912397,40.6440636,0 14.5911553,40.6441032,0 14.5910936,40.6441696,0 14.5910129,40.6441819,0 14.5909520,40.6442449,0 14.5908547,40.6442961,0 14.5906810,40.6443808,0 14.5905784,40.6444269,0 14.5904312,40.6444686,0 14.5904174,40.6444820,0 14.5903715,40.6445267,0 14.5902911,40.6446060,0 14.5902159,40.6446999,0 14.5901675,40.6447877,0 14.5901115,40.6448895,0 14.5900304,40.6449916,0 14.5899830,40.6450431,0 14.5899157,40.6451522,0 14.5898977,40.6452184,0 14.5899173,40.6453075,0 14.5899596,40.6453970,0 14.5899943,40.6454547,0 14.5900734,40.6455395,0 14.5901172,40.6456152,0 14.5901579,40.6457004,0 14.5901987,40.6458142,0 14.5902384,40.6459289,0 14.5902476,40.6459928,0 14.5902617,40.6460990,0 14.5902844,40.6461593,0 14.5903154,40.6461924,0 14.5903803,40.6462451,0 14.5904358,40.6463186,0 14.5904380,40.6463997,0 14.5904190,40.6464554,0 14.5903928,40.6465135,0 14.5902862,40.6466433,0 14.5901857,40.6467551,0 14.5900606,40.6469259,0 14.5899528,40.6470402,0 14.5898109,40.6471568,0 14.5897661,40.6471909,0 14.5896539,40.6472380,0 14.5895677,40.6473170,0 14.5895028,40.6474166,0 14.5894460,40.6475145,0 14.5894394,40.6475755,0 14.5894772,40.6476361,0 14.5895001,40.6477033,0 14.5894736,40.6477839,0 14.5894053,40.6478867,0 14.5892869,40.6479454,0 14.5892146,40.6480208,0 14.5891586,40.6480553,0 14.5891043,40.6480963,0 14.5890657,40.6481123,0 14.5890158,40.6481189,0 14.5889502,40.6481017,0 14.5888490,40.6480681,0 14.5887729,40.6480383,0 14.5887179,40.6480092,0 14.5886804,40.6479564,0 14.5886166,40.6479204,0 14.5884905,40.6478915,0 14.5883405,40.6478746,0 14.5882713,40.6478834,0 14.5881559,40.6479817,0 14.5880806,40.6480291,0 14.5880140,40.6480864,0 14.5879435,40.6481761,0 14.5879008,40.6482252,0 14.5878377,40.6482478,0 14.5878250,40.6482819,0 14.5878509,40.6483182,0 14.5879290,40.6483735,0 14.5879737,40.6484192,0 14.5880404,40.6484541,0 14.5880766,40.6484878,0 14.5880727,40.6485254,0 14.5879927,40.6487703,0 14.5879724,40.6488074,0 14.5879367,40.6488768,0 14.5879022,40.6489143,0 14.5878376,40.6489655,0 14.5877336,40.6490952,0 14.5876352,40.6491704,0 14.5875869,40.6492300,0 14.5875542,40.6492620,0 14.5875097,40.6493087,0 14.5874192,40.6493551,0 14.5873188,40.6493600,0 14.5871553,40.6493557,0 14.5870028,40.6493396,0 14.5868599,40.6493040,0 14.5866478,40.6493105,0 14.5864961,40.6493075,0 14.5864104,40.6492917,0 14.5863341,40.6492736,0 14.5862745,40.6492460,0 14.5861841,40.6492274,0 14.5860875,40.6492606,0 14.5860088,40.6493229,0 14.5859426,40.6493797,0 14.5874427,40.6494339,0 14.5868872,40.6494919,0 14.5865741,40.6494726,0 14.5864977,40.6494628,0 14.5863420,40.6493706,0 14.5861497,40.6493391,0 14.5859426,40.6493797,0 14.5858311,40.6494511,0 14.5857444,40.6496235,0 14.5857180,40.6497673,0 14.5857091,40.6498663,0 14.5857115,40.6498919,0 14.5856964,40.6499246,0 14.5856159,40.6499610,0 14.5856115,40.6499953,0 14.5856041,40.6500533,0 14.5855552,40.6500674,0 14.5855320,40.6500519,0 14.5855109,40.6500298,0 14.5854607,40.6500331,0 14.5854349,40.6500510,0 14.5854086,40.6500910,0 14.5854099,40.6501537,0 14.5853750,40.6501737,0 14.5852200,40.6501966,0 14.5849933,40.6502170,0 14.5847321,40.6502397,0 14.5845430,40.6502798,0 14.5845017,40.6503017,0 14.5844507,40.6503416,0 14.5843907,40.6503900,0 14.5843011,40.6504636,0 14.5841688,40.6506494,0 14.5840596,40.6506912,0 14.5839141,40.6506771,0 14.5838095,40.6506789,0 14.5836778,40.6506605,0 14.5835650,40.6506867,0 14.5834085,40.6507052,0 14.5832535,40.6506903,0 14.5831931,40.6507027,0 14.5831719,40.6507285,0 14.5830799,40.6507451,0 14.5829652,40.6507521,0 14.5828039,40.6507516,0 14.5826366,40.6507728,0 14.5826446,40.6508056,0 14.5826449,40.6508418,0 14.5825769,40.6508928,0 14.5824748,40.6509955,0 14.5824365,40.6511089,0 14.5823739,40.6511814,0 14.5822552,40.6512973,0 14.5822083,40.6512854,0 14.5821548,40.6512809,0 14.5821222,40.6513129,0 14.5821046,40.6513270,0 14.5820892,40.6513439,0 14.5820795,40.6513684,0 14.5820689,40.6513988,0 14.5820684,40.6514330,0 14.5820533,40.6514990,0 14.5820577,40.6515820,0 14.5819793,40.6516511,0 14.5819453,40.6516803,0</coordinates>
      </LineString>
    </Placemark>
  </Document>
</kml>
