{
  "type": "FeatureCollection",
  "name": "Valle delle Ferriere",
  "features": [
    {
      "type": "Feature",
      "properties": {
        "slug": "valle-delle-ferriere",
        "title": "Valle delle Ferriere",
        "osmRelationId": 4808044,
        "source": "OpenStreetMap relation 4808044",
        "license": "ODbL-1.0",
        "fallbackUrl": "https://maps.app.goo.gl/8s6k4ok28JP67kiS6",
        "distanceKm": 3.52
      },
      "geometry": {
        "type": "LineString",
        "coordinates": [
          [
            14.602727,
            40.633831
          ],
          [
            14.6027226,
            40.6338731
          ],
          [
            14.6027196,
            40.6338945
          ],
          [
            14.6027039,
            40.6341055
          ],
          [
            14.6026887,
            40.6341358
          ],
          [
            14.6026467,
            40.6342035
          ],
          [
            14.6025974,
            40.6342758
          ],
          [
            14.602564,
            40.6343261
          ],
          [
            14.6025387,
            40.634356
          ],
          [
            14.6025162,
            40.6343823
          ],
          [
            14.6024681,
            40.6344314
          ],
          [
            14.6023286,
            40.6345882
          ],
          [
            14.6022291,
            40.6346766
          ],
          [
            14.602205,
            40.6347015
          ],
          [
            14.602175,
            40.6347314
          ],
          [
            14.6020774,
            40.6348361
          ],
          [
            14.6020495,
            40.6348816
          ],
          [
            14.6020178,
            40.6349818
          ],
          [
            14.6020112,
            40.6350526
          ],
          [
            14.6020052,
            40.6351158
          ],
          [
            14.6020041,
            40.6351334
          ],
          [
            14.6020025,
            40.6351612
          ],
          [
            14.6019993,
            40.6352749
          ],
          [
            14.6019972,
            40.6353434
          ],
          [
            14.6019939,
            40.6354649
          ],
          [
            14.6019919,
            40.6355518
          ],
          [
            14.6019924,
            40.6355719
          ],
          [
            14.6019924,
            40.6355739
          ],
          [
            14.601994,
            40.6356446
          ],
          [
            14.6019944,
            40.6356532
          ],
          [
            14.6019965,
            40.6357017
          ],
          [
            14.6020077,
            40.6358038
          ],
          [
            14.6020146,
            40.6358659
          ],
          [
            14.6020192,
            40.6359073
          ],
          [
            14.6020306,
            40.6360112
          ],
          [
            14.6020358,
            40.636088
          ],
          [
            14.6020566,
            40.6363932
          ],
          [
            14.6020594,
            40.6365227
          ],
          [
            14.6020599,
            40.636529
          ],
          [
            14.6020605,
            40.6365409
          ],
          [
            14.6020595,
            40.6365691
          ],
          [
            14.6020594,
            40.6365723
          ],
          [
            14.6020547,
            40.6366404
          ],
          [
            14.602053,
            40.6366652
          ],
          [
            14.6020347,
            40.6367689
          ],
          [
            14.6020298,
            40.6368078
          ],
          [
            14.6020344,
            40.6368515
          ],
          [
            14.6020369,
            40.6368762
          ],
          [
            14.602042,
            40.6369098
          ],
          [
            14.6020499,
            40.6369609
          ],
          [
            14.6020552,
            40.6370073
          ],
          [
            14.6020626,
            40.6371152
          ],
          [
            14.602057,
            40.6372273
          ],
          [
            14.6020403,
            40.6373104
          ],
          [
            14.6020308,
            40.6373344
          ],
          [
            14.6019939,
            40.6373757
          ],
          [
            14.6019209,
            40.6374373
          ],
          [
            14.6019167,
            40.6374408
          ],
          [
            14.6017189,
            40.6375626
          ],
          [
            14.6015844,
            40.6376759
          ],
          [
            14.6015173,
            40.6377529
          ],
          [
            14.6014698,
            40.6379262
          ],
          [
            14.6014497,
            40.6379848
          ],
          [
            14.6014244,
            40.6380379
          ],
          [
            14.6013992,
            40.6380823
          ],
          [
            14.6013446,
            40.6381517
          ],
          [
            14.601322,
            40.6381839
          ],
          [
            14.6012624,
            40.6382705
          ],
          [
            14.6012039,
            40.6383633
          ],
          [
            14.6011759,
            40.6383976
          ],
          [
            14.6011457,
            40.6384265
          ],
          [
            14.6011262,
            40.638443
          ],
          [
            14.6010775,
            40.6384866
          ],
          [
            14.6010302,
            40.6385359
          ],
          [
            14.6010033,
            40.6385703
          ],
          [
            14.6009808,
            40.6386086
          ],
          [
            14.6009694,
            40.6386464
          ],
          [
            14.6009594,
            40.6386886
          ],
          [
            14.6009236,
            40.6387826
          ],
          [
            14.6008718,
            40.6388673
          ],
          [
            14.6008487,
            40.6389059
          ],
          [
            14.6008126,
            40.6389608
          ],
          [
            14.6007734,
            40.6390168
          ],
          [
            14.600681,
            40.6391663
          ],
          [
            14.6006438,
            40.6392215
          ],
          [
            14.6006042,
            40.6392883
          ],
          [
            14.6005483,
            40.6393651
          ],
          [
            14.6005031,
            40.6394169
          ],
          [
            14.600445,
            40.6394786
          ],
          [
            14.6003612,
            40.6395582
          ],
          [
            14.6003045,
            40.6395988
          ],
          [
            14.6002492,
            40.6396305
          ],
          [
            14.6001906,
            40.6396606
          ],
          [
            14.6001272,
            40.6396873
          ],
          [
            14.6000387,
            40.6397189
          ],
          [
            14.5999085,
            40.6397588
          ],
          [
            14.5998005,
            40.6397867
          ],
          [
            14.5997179,
            40.6397949
          ],
          [
            14.5996641,
            40.6397997
          ],
          [
            14.5996167,
            40.6398032
          ],
          [
            14.5995733,
            40.6398074
          ],
          [
            14.5995224,
            40.6398185
          ],
          [
            14.5996058,
            40.6398954
          ],
          [
            14.5996751,
            40.6399459
          ],
          [
            14.5996987,
            40.6399546
          ],
          [
            14.5997149,
            40.6399566
          ],
          [
            14.5997545,
            40.6399572
          ],
          [
            14.5998501,
            40.6399576
          ],
          [
            14.5999335,
            40.6399594
          ],
          [
            14.5999569,
            40.6399604
          ],
          [
            14.5999784,
            40.6399658
          ],
          [
            14.5998872,
            40.6400118
          ],
          [
            14.5998587,
            40.6400295
          ],
          [
            14.5998442,
            40.6400508
          ],
          [
            14.599812,
            40.6401272
          ],
          [
            14.5997873,
            40.6402037
          ],
          [
            14.5997221,
            40.640303
          ],
          [
            14.5996233,
            40.640401
          ],
          [
            14.5995106,
            40.640484
          ],
          [
            14.5994234,
            40.6405778
          ],
          [
            14.5994068,
            40.6405988
          ],
          [
            14.5993487,
            40.6407023
          ],
          [
            14.5992922,
            40.6407619
          ],
          [
            14.5992477,
            40.6408316
          ],
          [
            14.5992238,
            40.6408701
          ],
          [
            14.5991835,
            40.6409082
          ],
          [
            14.5990625,
            40.640987
          ],
          [
            14.5990356,
            40.6410134
          ],
          [
            14.5989652,
            40.6410839
          ],
          [
            14.5988715,
            40.6412312
          ],
          [
            14.5988423,
            40.6412627
          ],
          [
            14.5987456,
            40.6412999
          ],
          [
            14.5987001,
            40.6413337
          ],
          [
            14.5986523,
            40.6413778
          ],
          [
            14.5986384,
            40.6413996
          ],
          [
            14.5985886,
            40.6414609
          ],
          [
            14.5985565,
            40.6414691
          ],
          [
            14.5984797,
            40.6414923
          ],
          [
            14.5984102,
            40.6415004
          ],
          [
            14.5983268,
            40.6414846
          ],
          [
            14.5982245,
            40.6414645
          ],
          [
            14.5981677,
            40.641471
          ],
          [
            14.5980034,
            40.6415119
          ],
          [
            14.5979739,
            40.6415307
          ],
          [
            14.59791,
            40.6415482
          ],
          [
            14.5978651,
            40.6415701
          ],
          [
            14.5977728,
            40.6416934
          ],
          [
            14.5976851,
            40.6418129
          ],
          [
            14.5975128,
            40.6418958
          ],
          [
            14.5974802,
            40.6419065
          ],
          [
            14.5973082,
            40.6420406
          ],
          [
            14.5972533,
            40.6420869
          ],
          [
            14.5971973,
            40.6421217
          ],
          [
            14.5970623,
            40.6421788
          ],
          [
            14.5968365,
            40.6422483
          ],
          [
            14.5967816,
            40.6422646
          ],
          [
            14.5965507,
            40.642291
          ],
          [
            14.5964762,
            40.6423339
          ],
          [
            14.5964164,
            40.6423552
          ],
          [
            14.5963762,
            40.6423671
          ],
          [
            14.5963542,
            40.6423832
          ],
          [
            14.596302,
            40.6424414
          ],
          [
            14.5962235,
            40.6425488
          ],
          [
            14.5961758,
            40.6425935
          ],
          [
            14.5961464,
            40.6425996
          ],
          [
            14.5961279,
            40.6425939
          ],
          [
            14.5960339,
            40.6425559
          ],
          [
            14.5958479,
            40.6424748
          ],
          [
            14.5957924,
            40.642464
          ],
          [
            14.5957327,
            40.6424561
          ],
          [
            14.5956646,
            40.6424768
          ],
          [
            14.5956044,
            40.6424832
          ],
          [
            14.5954623,
            40.6425149
          ],
          [
            14.5954029,
            40.6425314
          ],
          [
            14.5952076,
            40.642538
          ],
          [
            14.5951432,
            40.6425429
          ],
          [
            14.5950976,
            40.6425356
          ],
          [
            14.5950221,
            40.6425298
          ],
          [
            14.5948812,
            40.6425399
          ],
          [
            14.5947729,
            40.6425635
          ],
          [
            14.5947196,
            40.642573
          ],
          [
            14.5944822,
            40.6425969
          ],
          [
            14.5944032,
            40.6426063
          ],
          [
            14.5942622,
            40.6426882
          ],
          [
            14.5941548,
            40.6427214
          ],
          [
            14.5940568,
            40.642743
          ],
          [
            14.5938902,
            40.6427913
          ],
          [
            14.593807,
            40.6428113
          ],
          [
            14.5937122,
            40.6428385
          ],
          [
            14.5936529,
            40.6428493
          ],
          [
            14.5935984,
            40.6428504
          ],
          [
            14.5935426,
            40.6428255
          ],
          [
            14.5935107,
            40.6428309
          ],
          [
            14.5934332,
            40.6427989
          ],
          [
            14.5933793,
            40.6427761
          ],
          [
            14.593338,
            40.6427669
          ],
          [
            14.5933263,
            40.642766
          ],
          [
            14.5932426,
            40.6427564
          ],
          [
            14.5931214,
            40.6427893
          ],
          [
            14.5930694,
            40.6428477
          ],
          [
            14.5930248,
            40.6428972
          ],
          [
            14.5929622,
            40.64294
          ],
          [
            14.5928355,
            40.6430173
          ],
          [
            14.5926506,
            40.6430696
          ],
          [
            14.5924069,
            40.643103
          ],
          [
            14.5922999,
            40.6431233
          ],
          [
            14.5920609,
            40.6431747
          ],
          [
            14.5919657,
            40.6432066
          ],
          [
            14.5918792,
            40.6432539
          ],
          [
            14.5917653,
            40.643321
          ],
          [
            14.5917334,
            40.6433498
          ],
          [
            14.5916937,
            40.6434382
          ],
          [
            14.5916502,
            40.6435572
          ],
          [
            14.5915909,
            40.6436788
          ],
          [
            14.5915937,
            40.6436921
          ],
          [
            14.5915985,
            40.6437154
          ],
          [
            14.5915697,
            40.6437562
          ],
          [
            14.5915268,
            40.6438021
          ],
          [
            14.591457,
            40.6438549
          ],
          [
            14.5913982,
            40.6439134
          ],
          [
            14.5912977,
            40.643987
          ],
          [
            14.5912397,
            40.6440636
          ],
          [
            14.5911553,
            40.6441032
          ],
          [
            14.5910936,
            40.6441696
          ],
          [
            14.5910129,
            40.6441819
          ],
          [
            14.590952,
            40.6442449
          ],
          [
            14.5908547,
            40.6442961
          ],
          [
            14.590681,
            40.6443808
          ],
          [
            14.5905784,
            40.6444269
          ],
          [
            14.5904312,
            40.6444686
          ],
          [
            14.5904174,
            40.644482
          ],
          [
            14.5903715,
            40.6445267
          ],
          [
            14.5902911,
            40.644606
          ],
          [
            14.5902159,
            40.6446999
          ],
          [
            14.5901675,
            40.6447877
          ],
          [
            14.5901115,
            40.6448895
          ],
          [
            14.5900304,
            40.6449916
          ],
          [
            14.589983,
            40.6450431
          ],
          [
            14.5899157,
            40.6451522
          ],
          [
            14.5898977,
            40.6452184
          ],
          [
            14.5899173,
            40.6453075
          ],
          [
            14.5899596,
            40.645397
          ],
          [
            14.5899943,
            40.6454547
          ],
          [
            14.5900734,
            40.6455395
          ],
          [
            14.5901172,
            40.6456152
          ],
          [
            14.5901579,
            40.6457004
          ],
          [
            14.5901987,
            40.6458142
          ],
          [
            14.5902384,
            40.6459289
          ],
          [
            14.5902476,
            40.6459928
          ],
          [
            14.5902617,
            40.646099
          ],
          [
            14.5902844,
            40.6461593
          ],
          [
            14.5903154,
            40.6461924
          ],
          [
            14.5903803,
            40.6462451
          ],
          [
            14.5904358,
            40.6463186
          ],
          [
            14.590438,
            40.6463997
          ],
          [
            14.590419,
            40.6464554
          ],
          [
            14.5903928,
            40.6465135
          ],
          [
            14.5902862,
            40.6466433
          ],
          [
            14.5901857,
            40.6467551
          ],
          [
            14.5900606,
            40.6469259
          ],
          [
            14.5899528,
            40.6470402
          ],
          [
            14.5898109,
            40.6471568
          ],
          [
            14.5897661,
            40.6471909
          ],
          [
            14.5896539,
            40.647238
          ],
          [
            14.5895677,
            40.647317
          ],
          [
            14.5895028,
            40.6474166
          ],
          [
            14.589446,
            40.6475145
          ],
          [
            14.5894394,
            40.6475755
          ],
          [
            14.5894772,
            40.6476361
          ],
          [
            14.5895001,
            40.6477033
          ],
          [
            14.5894736,
            40.6477839
          ],
          [
            14.5894053,
            40.6478867
          ],
          [
            14.5892869,
            40.6479454
          ],
          [
            14.5892146,
            40.6480208
          ],
          [
            14.5891586,
            40.6480553
          ],
          [
            14.5891043,
            40.6480963
          ],
          [
            14.5890657,
            40.6481123
          ],
          [
            14.5890158,
            40.6481189
          ],
          [
            14.5889502,
            40.6481017
          ],
          [
            14.588849,
            40.6480681
          ],
          [
            14.5887729,
            40.6480383
          ],
          [
            14.5887179,
            40.6480092
          ],
          [
            14.5886804,
            40.6479564
          ],
          [
            14.5886166,
            40.6479204
          ],
          [
            14.5884905,
            40.6478915
          ],
          [
            14.5883405,
            40.6478746
          ],
          [
            14.5882713,
            40.6478834
          ],
          [
            14.5881559,
            40.6479817
          ],
          [
            14.5880806,
            40.6480291
          ],
          [
            14.588014,
            40.6480864
          ],
          [
            14.5879435,
            40.6481761
          ],
          [
            14.5879008,
            40.6482252
          ],
          [
            14.5878377,
            40.6482478
          ],
          [
            14.587825,
            40.6482819
          ],
          [
            14.5878509,
            40.6483182
          ],
          [
            14.587929,
            40.6483735
          ],
          [
            14.5879737,
            40.6484192
          ],
          [
            14.5880404,
            40.6484541
          ],
          [
            14.5880766,
            40.6484878
          ],
          [
            14.5880727,
            40.6485254
          ],
          [
            14.5879927,
            40.6487703
          ],
          [
            14.5879724,
            40.6488074
          ],
          [
            14.5879367,
            40.6488768
          ],
          [
            14.5879022,
            40.6489143
          ],
          [
            14.5878376,
            40.6489655
          ],
          [
            14.5877336,
            40.6490952
          ],
          [
            14.5876352,
            40.6491704
          ],
          [
            14.5875869,
            40.64923
          ],
          [
            14.5875542,
            40.649262
          ],
          [
            14.5875097,
            40.6493087
          ],
          [
            14.5874192,
            40.6493551
          ],
          [
            14.5873188,
            40.64936
          ],
          [
            14.5871553,
            40.6493557
          ],
          [
            14.5870028,
            40.6493396
          ],
          [
            14.5868599,
            40.649304
          ],
          [
            14.5866478,
            40.6493105
          ],
          [
            14.5864961,
            40.6493075
          ],
          [
            14.5864104,
            40.6492917
          ],
          [
            14.5863341,
            40.6492736
          ],
          [
            14.5862745,
            40.649246
          ],
          [
            14.5861841,
            40.6492274
          ],
          [
            14.5860875,
            40.6492606
          ],
          [
            14.5860088,
            40.6493229
          ],
          [
            14.5859426,
            40.6493797
          ],
          [
            14.5874427,
            40.6494339
          ],
          [
            14.5868872,
            40.6494919
          ],
          [
            14.5865741,
            40.6494726
          ],
          [
            14.5864977,
            40.6494628
          ],
          [
            14.586342,
            40.6493706
          ],
          [
            14.5861497,
            40.6493391
          ],
          [
            14.5859426,
            40.6493797
          ],
          [
            14.5858311,
            40.6494511
          ],
          [
            14.5857444,
            40.6496235
          ],
          [
            14.585718,
            40.6497673
          ],
          [
            14.5857091,
            40.6498663
          ],
          [
            14.5857115,
            40.6498919
          ],
          [
            14.5856964,
            40.6499246
          ],
          [
            14.5856159,
            40.649961
          ],
          [
            14.5856115,
            40.6499953
          ],
          [
            14.5856041,
            40.6500533
          ],
          [
            14.5855552,
            40.6500674
          ],
          [
            14.585532,
            40.6500519
          ],
          [
            14.5855109,
            40.6500298
          ],
          [
            14.5854607,
            40.6500331
          ],
          [
            14.5854349,
            40.650051
          ],
          [
            14.5854086,
            40.650091
          ],
          [
            14.5854099,
            40.6501537
          ],
          [
            14.585375,
            40.6501737
          ],
          [
            14.58522,
            40.6501966
          ],
          [
            14.5849933,
            40.650217
          ],
          [
            14.5847321,
            40.6502397
          ],
          [
            14.584543,
            40.6502798
          ],
          [
            14.5845017,
            40.6503017
          ],
          [
            14.5844507,
            40.6503416
          ],
          [
            14.5843907,
            40.65039
          ],
          [
            14.5843011,
            40.6504636
          ],
          [
            14.5841688,
            40.6506494
          ],
          [
            14.5840596,
            40.6506912
          ],
          [
            14.5839141,
            40.6506771
          ],
          [
            14.5838095,
            40.6506789
          ],
          [
            14.5836778,
            40.6506605
          ],
          [
            14.583565,
            40.6506867
          ],
          [
            14.5834085,
            40.6507052
          ],
          [
            14.5832535,
            40.6506903
          ],
          [
            14.5831931,
            40.6507027
          ],
          [
            14.5831719,
            40.6507285
          ],
          [
            14.5830799,
            40.6507451
          ],
          [
            14.5829652,
            40.6507521
          ],
          [
            14.5828039,
            40.6507516
          ],
          [
            14.5826366,
            40.6507728
          ],
          [
            14.5826446,
            40.6508056
          ],
          [
            14.5826449,
            40.6508418
          ],
          [
            14.5825769,
            40.6508928
          ],
          [
            14.5824748,
            40.6509955
          ],
          [
            14.5824365,
            40.6511089
          ],
          [
            14.5823739,
            40.6511814
          ],
          [
            14.5822552,
            40.6512973
          ],
          [
            14.5822083,
            40.6512854
          ],
          [
            14.5821548,
            40.6512809
          ],
          [
            14.5821222,
            40.6513129
          ],
          [
            14.5821046,
            40.651327
          ],
          [
            14.5820892,
            40.6513439
          ],
          [
            14.5820795,
            40.6513684
          ],
          [
            14.5820689,
            40.6513988
          ],
          [
            14.5820684,
            40.651433
          ],
          [
            14.5820533,
            40.651499
          ],
          [
            14.5820577,
            40.651582
          ],
          [
            14.5819793,
            40.6516511
          ],
          [
            14.5819453,
            40.6516803
          ]
        ]
      }
    }
  ]
}
