<?xml version="1.0" encoding="UTF-8"?>
<gpx version="1.1" creator="Amalfi.Day" xmlns="http://www.topografix.com/GPX/1/1">
  <metadata>
    <name>Valle delle Ferriere</name>
    <desc>OpenStreetMap relation 4808044</desc>
  </metadata>
  <trk>
    <name>Valle delle Ferriere</name>
    <trkseg>
      <trkpt lat="40.6338310" lon="14.6027270" />
      <trkpt lat="40.6338731" lon="14.6027226" />
      <trkpt lat="40.6338945" lon="14.6027196" />
      <trkpt lat="40.6341055" lon="14.6027039" />
      <trkpt lat="40.6341358" lon="14.6026887" />
      <trkpt lat="40.6342035" lon="14.6026467" />
      <trkpt lat="40.6342758" lon="14.6025974" />
      <trkpt lat="40.6343261" lon="14.6025640" />
      <trkpt lat="40.6343560" lon="14.6025387" />
      <trkpt lat="40.6343823" lon="14.6025162" />
      <trkpt lat="40.6344314" lon="14.6024681" />
      <trkpt lat="40.6345882" lon="14.6023286" />
      <trkpt lat="40.6346766" lon="14.6022291" />
      <trkpt lat="40.6347015" lon="14.6022050" />
      <trkpt lat="40.6347314" lon="14.6021750" />
      <trkpt lat="40.6348361" lon="14.6020774" />
      <trkpt lat="40.6348816" lon="14.6020495" />
      <trkpt lat="40.6349818" lon="14.6020178" />
      <trkpt lat="40.6350526" lon="14.6020112" />
      <trkpt lat="40.6351158" lon="14.6020052" />
      <trkpt lat="40.6351334" lon="14.6020041" />
      <trkpt lat="40.6351612" lon="14.6020025" />
      <trkpt lat="40.6352749" lon="14.6019993" />
      <trkpt lat="40.6353434" lon="14.6019972" />
      <trkpt lat="40.6354649" lon="14.6019939" />
      <trkpt lat="40.6355518" lon="14.6019919" />
      <trkpt lat="40.6355719" lon="14.6019924" />
      <trkpt lat="40.6355739" lon="14.6019924" />
      <trkpt lat="40.6356446" lon="14.6019940" />
      <trkpt lat="40.6356532" lon="14.6019944" />
      <trkpt lat="40.6357017" lon="14.6019965" />
      <trkpt lat="40.6358038" lon="14.6020077" />
      <trkpt lat="40.6358659" lon="14.6020146" />
      <trkpt lat="40.6359073" lon="14.6020192" />
      <trkpt lat="40.6360112" lon="14.6020306" />
      <trkpt lat="40.6360880" lon="14.6020358" />
      <trkpt lat="40.6363932" lon="14.6020566" />
      <trkpt lat="40.6365227" lon="14.6020594" />
      <trkpt lat="40.6365290" lon="14.6020599" />
      <trkpt lat="40.6365409" lon="14.6020605" />
      <trkpt lat="40.6365691" lon="14.6020595" />
      <trkpt lat="40.6365723" lon="14.6020594" />
      <trkpt lat="40.6366404" lon="14.6020547" />
      <trkpt lat="40.6366652" lon="14.6020530" />
      <trkpt lat="40.6367689" lon="14.6020347" />
      <trkpt lat="40.6368078" lon="14.6020298" />
      <trkpt lat="40.6368515" lon="14.6020344" />
      <trkpt lat="40.6368762" lon="14.6020369" />
      <trkpt lat="40.6369098" lon="14.6020420" />
      <trkpt lat="40.6369609" lon="14.6020499" />
      <trkpt lat="40.6370073" lon="14.6020552" />
      <trkpt lat="40.6371152" lon="14.6020626" />
      <trkpt lat="40.6372273" lon="14.6020570" />
      <trkpt lat="40.6373104" lon="14.6020403" />
      <trkpt lat="40.6373344" lon="14.6020308" />
      <trkpt lat="40.6373757" lon="14.6019939" />
      <trkpt lat="40.6374373" lon="14.6019209" />
      <trkpt lat="40.6374408" lon="14.6019167" />
      <trkpt lat="40.6375626" lon="14.6017189" />
      <trkpt lat="40.6376759" lon="14.6015844" />
      <trkpt lat="40.6377529" lon="14.6015173" />
      <trkpt lat="40.6379262" lon="14.6014698" />
      <trkpt lat="40.6379848" lon="14.6014497" />
      <trkpt lat="40.6380379" lon="14.6014244" />
      <trkpt lat="40.6380823" lon="14.6013992" />
      <trkpt lat="40.6381517" lon="14.6013446" />
      <trkpt lat="40.6381839" lon="14.6013220" />
      <trkpt lat="40.6382705" lon="14.6012624" />
      <trkpt lat="40.6383633" lon="14.6012039" />
      <trkpt lat="40.6383976" lon="14.6011759" />
      <trkpt lat="40.6384265" lon="14.6011457" />
      <trkpt lat="40.6384430" lon="14.6011262" />
      <trkpt lat="40.6384866" lon="14.6010775" />
      <trkpt lat="40.6385359" lon="14.6010302" />
      <trkpt lat="40.6385703" lon="14.6010033" />
      <trkpt lat="40.6386086" lon="14.6009808" />
      <trkpt lat="40.6386464" lon="14.6009694" />
      <trkpt lat="40.6386886" lon="14.6009594" />
      <trkpt lat="40.6387826" lon="14.6009236" />
      <trkpt lat="40.6388673" lon="14.6008718" />
      <trkpt lat="40.6389059" lon="14.6008487" />
      <trkpt lat="40.6389608" lon="14.6008126" />
      <trkpt lat="40.6390168" lon="14.6007734" />
      <trkpt lat="40.6391663" lon="14.6006810" />
      <trkpt lat="40.6392215" lon="14.6006438" />
      <trkpt lat="40.6392883" lon="14.6006042" />
      <trkpt lat="40.6393651" lon="14.6005483" />
      <trkpt lat="40.6394169" lon="14.6005031" />
      <trkpt lat="40.6394786" lon="14.6004450" />
      <trkpt lat="40.6395582" lon="14.6003612" />
      <trkpt lat="40.6395988" lon="14.6003045" />
      <trkpt lat="40.6396305" lon="14.6002492" />
      <trkpt lat="40.6396606" lon="14.6001906" />
      <trkpt lat="40.6396873" lon="14.6001272" />
      <trkpt lat="40.6397189" lon="14.6000387" />
      <trkpt lat="40.6397588" lon="14.5999085" />
      <trkpt lat="40.6397867" lon="14.5998005" />
      <trkpt lat="40.6397949" lon="14.5997179" />
      <trkpt lat="40.6397997" lon="14.5996641" />
      <trkpt lat="40.6398032" lon="14.5996167" />
      <trkpt lat="40.6398074" lon="14.5995733" />
      <trkpt lat="40.6398185" lon="14.5995224" />
      <trkpt lat="40.6398954" lon="14.5996058" />
      <trkpt lat="40.6399459" lon="14.5996751" />
      <trkpt lat="40.6399546" lon="14.5996987" />
      <trkpt lat="40.6399566" lon="14.5997149" />
      <trkpt lat="40.6399572" lon="14.5997545" />
      <trkpt lat="40.6399576" lon="14.5998501" />
      <trkpt lat="40.6399594" lon="14.5999335" />
      <trkpt lat="40.6399604" lon="14.5999569" />
      <trkpt lat="40.6399658" lon="14.5999784" />
      <trkpt lat="40.6400118" lon="14.5998872" />
      <trkpt lat="40.6400295" lon="14.5998587" />
      <trkpt lat="40.6400508" lon="14.5998442" />
      <trkpt lat="40.6401272" lon="14.5998120" />
      <trkpt lat="40.6402037" lon="14.5997873" />
      <trkpt lat="40.6403030" lon="14.5997221" />
      <trkpt lat="40.6404010" lon="14.5996233" />
      <trkpt lat="40.6404840" lon="14.5995106" />
      <trkpt lat="40.6405778" lon="14.5994234" />
      <trkpt lat="40.6405988" lon="14.5994068" />
      <trkpt lat="40.6407023" lon="14.5993487" />
      <trkpt lat="40.6407619" lon="14.5992922" />
      <trkpt lat="40.6408316" lon="14.5992477" />
      <trkpt lat="40.6408701" lon="14.5992238" />
      <trkpt lat="40.6409082" lon="14.5991835" />
      <trkpt lat="40.6409870" lon="14.5990625" />
      <trkpt lat="40.6410134" lon="14.5990356" />
      <trkpt lat="40.6410839" lon="14.5989652" />
      <trkpt lat="40.6412312" lon="14.5988715" />
      <trkpt lat="40.6412627" lon="14.5988423" />
      <trkpt lat="40.6412999" lon="14.5987456" />
      <trkpt lat="40.6413337" lon="14.5987001" />
      <trkpt lat="40.6413778" lon="14.5986523" />
      <trkpt lat="40.6413996" lon="14.5986384" />
      <trkpt lat="40.6414609" lon="14.5985886" />
      <trkpt lat="40.6414691" lon="14.5985565" />
      <trkpt lat="40.6414923" lon="14.5984797" />
      <trkpt lat="40.6415004" lon="14.5984102" />
      <trkpt lat="40.6414846" lon="14.5983268" />
      <trkpt lat="40.6414645" lon="14.5982245" />
      <trkpt lat="40.6414710" lon="14.5981677" />
      <trkpt lat="40.6415119" lon="14.5980034" />
      <trkpt lat="40.6415307" lon="14.5979739" />
      <trkpt lat="40.6415482" lon="14.5979100" />
      <trkpt lat="40.6415701" lon="14.5978651" />
      <trkpt lat="40.6416934" lon="14.5977728" />
      <trkpt lat="40.6418129" lon="14.5976851" />
      <trkpt lat="40.6418958" lon="14.5975128" />
      <trkpt lat="40.6419065" lon="14.5974802" />
      <trkpt lat="40.6420406" lon="14.5973082" />
      <trkpt lat="40.6420869" lon="14.5972533" />
      <trkpt lat="40.6421217" lon="14.5971973" />
      <trkpt lat="40.6421788" lon="14.5970623" />
      <trkpt lat="40.6422483" lon="14.5968365" />
      <trkpt lat="40.6422646" lon="14.5967816" />
      <trkpt lat="40.6422910" lon="14.5965507" />
      <trkpt lat="40.6423339" lon="14.5964762" />
      <trkpt lat="40.6423552" lon="14.5964164" />
      <trkpt lat="40.6423671" lon="14.5963762" />
      <trkpt lat="40.6423832" lon="14.5963542" />
      <trkpt lat="40.6424414" lon="14.5963020" />
      <trkpt lat="40.6425488" lon="14.5962235" />
      <trkpt lat="40.6425935" lon="14.5961758" />
      <trkpt lat="40.6425996" lon="14.5961464" />
      <trkpt lat="40.6425939" lon="14.5961279" />
      <trkpt lat="40.6425559" lon="14.5960339" />
      <trkpt lat="40.6424748" lon="14.5958479" />
      <trkpt lat="40.6424640" lon="14.5957924" />
      <trkpt lat="40.6424561" lon="14.5957327" />
      <trkpt lat="40.6424768" lon="14.5956646" />
      <trkpt lat="40.6424832" lon="14.5956044" />
      <trkpt lat="40.6425149" lon="14.5954623" />
      <trkpt lat="40.6425314" lon="14.5954029" />
      <trkpt lat="40.6425380" lon="14.5952076" />
      <trkpt lat="40.6425429" lon="14.5951432" />
      <trkpt lat="40.6425356" lon="14.5950976" />
      <trkpt lat="40.6425298" lon="14.5950221" />
      <trkpt lat="40.6425399" lon="14.5948812" />
      <trkpt lat="40.6425635" lon="14.5947729" />
      <trkpt lat="40.6425730" lon="14.5947196" />
      <trkpt lat="40.6425969" lon="14.5944822" />
      <trkpt lat="40.6426063" lon="14.5944032" />
      <trkpt lat="40.6426882" lon="14.5942622" />
      <trkpt lat="40.6427214" lon="14.5941548" />
      <trkpt lat="40.6427430" lon="14.5940568" />
      <trkpt lat="40.6427913" lon="14.5938902" />
      <trkpt lat="40.6428113" lon="14.5938070" />
      <trkpt lat="40.6428385" lon="14.5937122" />
      <trkpt lat="40.6428493" lon="14.5936529" />
      <trkpt lat="40.6428504" lon="14.5935984" />
      <trkpt lat="40.6428255" lon="14.5935426" />
      <trkpt lat="40.6428309" lon="14.5935107" />
      <trkpt lat="40.6427989" lon="14.5934332" />
      <trkpt lat="40.6427761" lon="14.5933793" />
      <trkpt lat="40.6427669" lon="14.5933380" />
      <trkpt lat="40.6427660" lon="14.5933263" />
      <trkpt lat="40.6427564" lon="14.5932426" />
      <trkpt lat="40.6427893" lon="14.5931214" />
      <trkpt lat="40.6428477" lon="14.5930694" />
      <trkpt lat="40.6428972" lon="14.5930248" />
      <trkpt lat="40.6429400" lon="14.5929622" />
      <trkpt lat="40.6430173" lon="14.5928355" />
      <trkpt lat="40.6430696" lon="14.5926506" />
      <trkpt lat="40.6431030" lon="14.5924069" />
      <trkpt lat="40.6431233" lon="14.5922999" />
      <trkpt lat="40.6431747" lon="14.5920609" />
      <trkpt lat="40.6432066" lon="14.5919657" />
      <trkpt lat="40.6432539" lon="14.5918792" />
      <trkpt lat="40.6433210" lon="14.5917653" />
      <trkpt lat="40.6433498" lon="14.5917334" />
      <trkpt lat="40.6434382" lon="14.5916937" />
      <trkpt lat="40.6435572" lon="14.5916502" />
      <trkpt lat="40.6436788" lon="14.5915909" />
      <trkpt lat="40.6436921" lon="14.5915937" />
      <trkpt lat="40.6437154" lon="14.5915985" />
      <trkpt lat="40.6437562" lon="14.5915697" />
      <trkpt lat="40.6438021" lon="14.5915268" />
      <trkpt lat="40.6438549" lon="14.5914570" />
      <trkpt lat="40.6439134" lon="14.5913982" />
      <trkpt lat="40.6439870" lon="14.5912977" />
      <trkpt lat="40.6440636" lon="14.5912397" />
      <trkpt lat="40.6441032" lon="14.5911553" />
      <trkpt lat="40.6441696" lon="14.5910936" />
      <trkpt lat="40.6441819" lon="14.5910129" />
      <trkpt lat="40.6442449" lon="14.5909520" />
      <trkpt lat="40.6442961" lon="14.5908547" />
      <trkpt lat="40.6443808" lon="14.5906810" />
      <trkpt lat="40.6444269" lon="14.5905784" />
      <trkpt lat="40.6444686" lon="14.5904312" />
      <trkpt lat="40.6444820" lon="14.5904174" />
      <trkpt lat="40.6445267" lon="14.5903715" />
      <trkpt lat="40.6446060" lon="14.5902911" />
      <trkpt lat="40.6446999" lon="14.5902159" />
      <trkpt lat="40.6447877" lon="14.5901675" />
      <trkpt lat="40.6448895" lon="14.5901115" />
      <trkpt lat="40.6449916" lon="14.5900304" />
      <trkpt lat="40.6450431" lon="14.5899830" />
      <trkpt lat="40.6451522" lon="14.5899157" />
      <trkpt lat="40.6452184" lon="14.5898977" />
      <trkpt lat="40.6453075" lon="14.5899173" />
      <trkpt lat="40.6453970" lon="14.5899596" />
      <trkpt lat="40.6454547" lon="14.5899943" />
      <trkpt lat="40.6455395" lon="14.5900734" />
      <trkpt lat="40.6456152" lon="14.5901172" />
      <trkpt lat="40.6457004" lon="14.5901579" />
      <trkpt lat="40.6458142" lon="14.5901987" />
      <trkpt lat="40.6459289" lon="14.5902384" />
      <trkpt lat="40.6459928" lon="14.5902476" />
      <trkpt lat="40.6460990" lon="14.5902617" />
      <trkpt lat="40.6461593" lon="14.5902844" />
      <trkpt lat="40.6461924" lon="14.5903154" />
      <trkpt lat="40.6462451" lon="14.5903803" />
      <trkpt lat="40.6463186" lon="14.5904358" />
      <trkpt lat="40.6463997" lon="14.5904380" />
      <trkpt lat="40.6464554" lon="14.5904190" />
      <trkpt lat="40.6465135" lon="14.5903928" />
      <trkpt lat="40.6466433" lon="14.5902862" />
      <trkpt lat="40.6467551" lon="14.5901857" />
      <trkpt lat="40.6469259" lon="14.5900606" />
      <trkpt lat="40.6470402" lon="14.5899528" />
      <trkpt lat="40.6471568" lon="14.5898109" />
      <trkpt lat="40.6471909" lon="14.5897661" />
      <trkpt lat="40.6472380" lon="14.5896539" />
      <trkpt lat="40.6473170" lon="14.5895677" />
      <trkpt lat="40.6474166" lon="14.5895028" />
      <trkpt lat="40.6475145" lon="14.5894460" />
      <trkpt lat="40.6475755" lon="14.5894394" />
      <trkpt lat="40.6476361" lon="14.5894772" />
      <trkpt lat="40.6477033" lon="14.5895001" />
      <trkpt lat="40.6477839" lon="14.5894736" />
      <trkpt lat="40.6478867" lon="14.5894053" />
      <trkpt lat="40.6479454" lon="14.5892869" />
      <trkpt lat="40.6480208" lon="14.5892146" />
      <trkpt lat="40.6480553" lon="14.5891586" />
      <trkpt lat="40.6480963" lon="14.5891043" />
      <trkpt lat="40.6481123" lon="14.5890657" />
      <trkpt lat="40.6481189" lon="14.5890158" />
      <trkpt lat="40.6481017" lon="14.5889502" />
      <trkpt lat="40.6480681" lon="14.5888490" />
      <trkpt lat="40.6480383" lon="14.5887729" />
      <trkpt lat="40.6480092" lon="14.5887179" />
      <trkpt lat="40.6479564" lon="14.5886804" />
      <trkpt lat="40.6479204" lon="14.5886166" />
      <trkpt lat="40.6478915" lon="14.5884905" />
      <trkpt lat="40.6478746" lon="14.5883405" />
      <trkpt lat="40.6478834" lon="14.5882713" />
      <trkpt lat="40.6479817" lon="14.5881559" />
      <trkpt lat="40.6480291" lon="14.5880806" />
      <trkpt lat="40.6480864" lon="14.5880140" />
      <trkpt lat="40.6481761" lon="14.5879435" />
      <trkpt lat="40.6482252" lon="14.5879008" />
      <trkpt lat="40.6482478" lon="14.5878377" />
      <trkpt lat="40.6482819" lon="14.5878250" />
      <trkpt lat="40.6483182" lon="14.5878509" />
      <trkpt lat="40.6483735" lon="14.5879290" />
      <trkpt lat="40.6484192" lon="14.5879737" />
      <trkpt lat="40.6484541" lon="14.5880404" />
      <trkpt lat="40.6484878" lon="14.5880766" />
      <trkpt lat="40.6485254" lon="14.5880727" />
      <trkpt lat="40.6487703" lon="14.5879927" />
      <trkpt lat="40.6488074" lon="14.5879724" />
      <trkpt lat="40.6488768" lon="14.5879367" />
      <trkpt lat="40.6489143" lon="14.5879022" />
      <trkpt lat="40.6489655" lon="14.5878376" />
      <trkpt lat="40.6490952" lon="14.5877336" />
      <trkpt lat="40.6491704" lon="14.5876352" />
      <trkpt lat="40.6492300" lon="14.5875869" />
      <trkpt lat="40.6492620" lon="14.5875542" />
      <trkpt lat="40.6493087" lon="14.5875097" />
      <trkpt lat="40.6493551" lon="14.5874192" />
      <trkpt lat="40.6493600" lon="14.5873188" />
      <trkpt lat="40.6493557" lon="14.5871553" />
      <trkpt lat="40.6493396" lon="14.5870028" />
      <trkpt lat="40.6493040" lon="14.5868599" />
      <trkpt lat="40.6493105" lon="14.5866478" />
      <trkpt lat="40.6493075" lon="14.5864961" />
      <trkpt lat="40.6492917" lon="14.5864104" />
      <trkpt lat="40.6492736" lon="14.5863341" />
      <trkpt lat="40.6492460" lon="14.5862745" />
      <trkpt lat="40.6492274" lon="14.5861841" />
      <trkpt lat="40.6492606" lon="14.5860875" />
      <trkpt lat="40.6493229" lon="14.5860088" />
      <trkpt lat="40.6493797" lon="14.5859426" />
      <trkpt lat="40.6494339" lon="14.5874427" />
      <trkpt lat="40.6494919" lon="14.5868872" />
      <trkpt lat="40.6494726" lon="14.5865741" />
      <trkpt lat="40.6494628" lon="14.5864977" />
      <trkpt lat="40.6493706" lon="14.5863420" />
      <trkpt lat="40.6493391" lon="14.5861497" />
      <trkpt lat="40.6493797" lon="14.5859426" />
      <trkpt lat="40.6494511" lon="14.5858311" />
      <trkpt lat="40.6496235" lon="14.5857444" />
      <trkpt lat="40.6497673" lon="14.5857180" />
      <trkpt lat="40.6498663" lon="14.5857091" />
      <trkpt lat="40.6498919" lon="14.5857115" />
      <trkpt lat="40.6499246" lon="14.5856964" />
      <trkpt lat="40.6499610" lon="14.5856159" />
      <trkpt lat="40.6499953" lon="14.5856115" />
      <trkpt lat="40.6500533" lon="14.5856041" />
      <trkpt lat="40.6500674" lon="14.5855552" />
      <trkpt lat="40.6500519" lon="14.5855320" />
      <trkpt lat="40.6500298" lon="14.5855109" />
      <trkpt lat="40.6500331" lon="14.5854607" />
      <trkpt lat="40.6500510" lon="14.5854349" />
      <trkpt lat="40.6500910" lon="14.5854086" />
      <trkpt lat="40.6501537" lon="14.5854099" />
      <trkpt lat="40.6501737" lon="14.5853750" />
      <trkpt lat="40.6501966" lon="14.5852200" />
      <trkpt lat="40.6502170" lon="14.5849933" />
      <trkpt lat="40.6502397" lon="14.5847321" />
      <trkpt lat="40.6502798" lon="14.5845430" />
      <trkpt lat="40.6503017" lon="14.5845017" />
      <trkpt lat="40.6503416" lon="14.5844507" />
      <trkpt lat="40.6503900" lon="14.5843907" />
      <trkpt lat="40.6504636" lon="14.5843011" />
      <trkpt lat="40.6506494" lon="14.5841688" />
      <trkpt lat="40.6506912" lon="14.5840596" />
      <trkpt lat="40.6506771" lon="14.5839141" />
      <trkpt lat="40.6506789" lon="14.5838095" />
      <trkpt lat="40.6506605" lon="14.5836778" />
      <trkpt lat="40.6506867" lon="14.5835650" />
      <trkpt lat="40.6507052" lon="14.5834085" />
      <trkpt lat="40.6506903" lon="14.5832535" />
      <trkpt lat="40.6507027" lon="14.5831931" />
      <trkpt lat="40.6507285" lon="14.5831719" />
      <trkpt lat="40.6507451" lon="14.5830799" />
      <trkpt lat="40.6507521" lon="14.5829652" />
      <trkpt lat="40.6507516" lon="14.5828039" />
      <trkpt lat="40.6507728" lon="14.5826366" />
      <trkpt lat="40.6508056" lon="14.5826446" />
      <trkpt lat="40.6508418" lon="14.5826449" />
      <trkpt lat="40.6508928" lon="14.5825769" />
      <trkpt lat="40.6509955" lon="14.5824748" />
      <trkpt lat="40.6511089" lon="14.5824365" />
      <trkpt lat="40.6511814" lon="14.5823739" />
      <trkpt lat="40.6512973" lon="14.5822552" />
      <trkpt lat="40.6512854" lon="14.5822083" />
      <trkpt lat="40.6512809" lon="14.5821548" />
      <trkpt lat="40.6513129" lon="14.5821222" />
      <trkpt lat="40.6513270" lon="14.5821046" />
      <trkpt lat="40.6513439" lon="14.5820892" />
      <trkpt lat="40.6513684" lon="14.5820795" />
      <trkpt lat="40.6513988" lon="14.5820689" />
      <trkpt lat="40.6514330" lon="14.5820684" />
      <trkpt lat="40.6514990" lon="14.5820533" />
      <trkpt lat="40.6515820" lon="14.5820577" />
      <trkpt lat="40.6516511" lon="14.5819793" />
      <trkpt lat="40.6516803" lon="14.5819453" />
    </trkseg>
  </trk>
</gpx>
